name,address,road_address,lng,lat,tel,img,washer_cnt,dryer_cnt,id
크린토피아 코인워시 독립문현대점,서울 종로구 무악동 82,서울 종로구 통일로 246-10,126.9591205,37.57433876,02-3486-0568,https://img1.kakaocdn.net/relay/local/R680x420/?fname=http%3A%2F%2Ft1.daumcdn.net%2Flocalfiy%2F7CB3452B946E4AF6A655BA55C5A0D659,4,3,13077862
빨래터,서울 종로구 충신동 123,서울 종로구 율곡로20길 27,127.0039576,37.57481069,0507-1345-0976,https://img1.kakaocdn.net/relay/local/R680x420/?fname=http%3A%2F%2Ft1.daumcdn.net%2Flocal%2FkakaomapPhoto%2Freview%2F198b0cfb3237d169fffc8c3a79864ecbf4c27980%3Foriginal,4,3,1629005464
코인워시24빨래터 창신점,서울 종로구 창신동 647-16,서울 종로구 창신길 47,127.0104553,37.57375793,070-3893-9033,https://img1.kakaocdn.net/relay/local/R680x420/?fname=http%3A%2F%2Ft1.daumcdn.net%2Flocalfiy%2F7CB3452B946E4AF6A655BA55C5A0D659,5,3,15109141
펭귄하우스 숭인점,서울 종로구 숭인동 1375,서울 종로구 난계로29길 14,127.0223733,37.574596,1544-4335,https://img1.kakaocdn.net/relay/local/R680x420/?fname=http%3A%2F%2Ft1.daumcdn.net%2Flocalfiy%2F7CB3452B946E4AF6A655BA55C5A0D659,9,6,643237403
코인빨래방,서울 종로구 효제동 197-6,서울 종로구 종로35가길 7-3,127.0042223,37.57216896,,https://img1.kakaocdn.net/relay/local/R680x420/?fname=http%3A%2F%2Ft1.daumcdn.net%2Flocalfiy%2F7CB3452B946E4AF6A655BA55C5A0D659,4,4,927668429
코인워시24 셀프빨래방 성균관대점,서울 종로구 명륜1가 83-5,서울 종로구 성균관로 40,126.9969204,37.58637587,02-744-8285,https://img1.kakaocdn.net/relay/local/R680x420/?fname=http%3A%2F%2Ft1.daumcdn.net%2Flocalfiy%2F7CB3452B946E4AF6A655BA55C5A0D659,6,6,27039915
코인워시24 광화문점,서울 종로구 내자동 175,서울 종로구 사직로8길 15-2,126.9705673,37.57480708,010-8914-3756,https://img1.kakaocdn.net/relay/local/R680x420/?fname=http%3A%2F%2Ft1.daumcdn.net%2Flocalfiy%2F0C441F8736834EE1BE4369E9DE87C982,6,6,636374922
워시프렌즈 서울혜화점,서울 종로구 혜화동 15-29,서울 종로구 혜화로6길 9,127.0004619,37.58742827,,https://img1.kakaocdn.net/relay/local/R680x420/?fname=http%3A%2F%2Ft1.kakaocdn.net%2Ffiy_reboot%2Fplace%2FEDB5F32C8F654E70BA692CAC38A1627D,8,3,335499479
AMPM워시큐 누하점,서울 종로구 누하동 236,서울 종로구 필운대로 30,126.9691054,37.57877829,,https://img1.kakaocdn.net/relay/local/R680x420/?fname=http%3A%2F%2Ft1.kakaocdn.net%2Ffiy_reboot%2Fplace%2FEDB5F32C8F654E70BA692CAC38A1627D,6,3,1731506638
크린업24 경복궁역점,서울 종로구 내수동 73,서울 종로구 새문안로3길 23,126.9724156,37.57247936,010-6668-1140,https://img1.kakaocdn.net/relay/local/R680x420/?fname=http%3A%2F%2Ft1.kakaocdn.net%2Ffiy_reboot%2Fplace%2FBA94A12147E8426D928B0E6551307B3B,5,4,1883173435
스피드24클리닝,서울 종로구 숭인동 76,서울 종로구 종로 347,127.0160022,37.57405644,,https://img1.kakaocdn.net/relay/local/R680x420/?fname=http%3A%2F%2Ft1.kakaocdn.net%2Ffiy_reboot%2Fplace%2FEDB5F32C8F654E70BA692CAC38A1627D,6,4,273529064
코인워시24셀프빨래방 종로점,서울 종로구 신영동 247-1,서울 종로구 진흥로 483,126.9610061,37.60543084,02-391-8285,https://img1.kakaocdn.net/relay/local/R680x420/?fname=http%3A%2F%2Ft1.daumcdn.net%2Flocal%2FkakaomapPhoto%2Freview%2F198b0cfb3237d169fffc8c3a79864ecbf4c27980%3Foriginal,9,3,1798155413
셀프빨래방24 경복궁점,서울 종로구 필운동 163,서울 종로구 필운대로 12,126.9694388,37.5771638,02-733-7778,https://img1.kakaocdn.net/relay/local/R680x420/?fname=http%3A%2F%2Ft1.daumcdn.net%2Flocal%2FkakaomapPhoto%2Freview%2F198b0cfb3237d169fffc8c3a79864ecbf4c27980%4Foriginal,8,4,891240145
화이트365 성대점,서울 종로구 명륜3가 1-13,서울 종로구 명륜길 33-1,126.9951631,37.58861388,,https://img1.kakaocdn.net/relay/local/R680x420/?fname=http%3A%2F%2Ft1.daumcdn.net%2Flocal%2FkakaomapPhoto%2Freview%2F198b0cfb3237d169fffc8c3a79864ecbf4c27980%5Foriginal,9,4,1566072994
이지워시 교남점,서울 종로구 교북동 12-19,서울 종로구 송월길 155,126.9614811,37.57141673,,https://img1.kakaocdn.net/relay/local/R680x420/?fname=http%3A%2F%2Ft1.daumcdn.net%2Flocal%2FkakaomapPhoto%2Freview%2F198b0cfb3237d169fffc8c3a79864ecbf4c27980%6Foriginal,7,6,1690538295
크린토피아 코인워시 신당약수점,서울 중구 신당동 373-8,서울 중구 동호로8길 5,127.0118332,37.55403679,02-2232-2991,https://img1.kakaocdn.net/relay/local/R680x420/?fname=http%3A%2F%2Ft1.daumcdn.net%2Flocal%2FkakaomapPhoto%2Freview%2F198b0cfb3237d169fffc8c3a79864ecbf4c27980%7Foriginal,10,5,13077579
화이트365 신당역점,서울 중구 흥인동 13-1,서울 중구 다산로46길 17,127.0169039,37.56686547,,https://img1.kakaocdn.net/relay/local/R680x420/?fname=http%3A%2F%2Ft1.daumcdn.net%2Flocal%2FkakaomapPhoto%2Freview%2F198b0cfb3237d169fffc8c3a79864ecbf4c27980%8Foriginal,10,3,503114199
화이트365 신당점,서울 중구 신당동 48-14,서울 중구 퇴계로86길 100,127.0180232,37.56139535,,https://img1.kakaocdn.net/relay/local/R680x420/?fname=http%3A%2F%2Ft1.daumcdn.net%2Flocal%2FkakaomapPhoto%2Freview%2F198b0cfb3237d169fffc8c3a79864ecbf4c27980%9Foriginal,8,4,40682511
워시엔조이 황학동점,서울 중구 황학동 2545-2,서울 중구 청계천로 370,127.0189219,37.57058898,,https://img1.kakaocdn.net/relay/local/R680x420/?fname=http%3A%2F%2Ft1.daumcdn.net%2Flocal%2FkakaomapPhoto%2Freview%2F198b0cfb3237d169fffc8c3a79864ecbf4c27980%10Foriginal,3,3,254347796
크린토피아 코인워시 중구동국대점,서울 중구 장충동2가 193-115,서울 중구 동호로25길 29,127.0013627,37.55898926,02-2272-1616,https://img1.kakaocdn.net/relay/local/R680x420/?fname=http%3A%2F%2Ft1.daumcdn.net%2Flocal%2FkakaomapPhoto%2Freview%2F198b0cfb3237d169fffc8c3a79864ecbf4c27980%11Foriginal,8,3,283413583
동국셀프빨래방,서울 중구 충무로5가 90,서울 중구 서애로1길 11,126.9985173,37.56136969,070-4916-9880,https://img1.kakaocdn.net/relay/local/R680x420/?fname=http%3A%2F%2Ft1.daumcdn.net%2Flocal%2FkakaomapPhoto%2Freview%2F198b0cfb3237d169fffc8c3a79864ecbf4c27980%12Foriginal,10,4,2031880835
24시셀프빨래방,서울 중구 회현동1가 82-11,서울 중구 퇴계로4길 49,126.9800809,37.55776223,,https://img1.kakaocdn.net/relay/local/R680x420/?fname=http%3A%2F%2Ft1.daumcdn.net%2Flocal%2FkakaomapPhoto%2Freview%2F198b0cfb3237d169fffc8c3a79864ecbf4c27980%13Foriginal,8,3,509238004
코인워시24시빨래터 서부역점,서울 중구 만리동1가 231,,126.9674239,37.55611239,02-363-8285,https://img1.kakaocdn.net/relay/local/R680x420/?fname=http%3A%2F%2Ft1.daumcdn.net%2Flocal%2FkakaomapPhoto%2Freview%2F198b0cfb3237d169fffc8c3a79864ecbf4c27980%14Foriginal,6,3,20689776
워시프렌즈 셀프빨래방 신당상왕십리점,서울 중구 신당동 855,,127.0251707,37.56487099,,https://img1.kakaocdn.net/relay/local/R680x420/?fname=http%3A%2F%2Ft1.daumcdn.net%2Flocal%2FkakaomapPhoto%2Freview%2F198b0cfb3237d169fffc8c3a79864ecbf4c27980%15Foriginal,6,4,1977147376
AMPM워시큐 청계블루,서울 중구 황학동 1719,서울 중구 난계로23길 27,127.0220279,37.57030372,,https://img1.kakaocdn.net/relay/local/R680x420/?fname=http%3A%2F%2Ft1.daumcdn.net%2Flocal%2FkakaomapPhoto%2Freview%2F198b0cfb3237d169fffc8c3a79864ecbf4c27980%16Foriginal,10,6,1619766497
워시프렌즈 장충동국대점,서울 중구 장충동2가 193-86,서울 중구 동호로25길 13,127.002207,37.55871714,,https://img1.kakaocdn.net/relay/local/R680x420/?fname=http%3A%2F%2Ft1.daumcdn.net%2Flocal%2FkakaomapPhoto%2Freview%2F198b0cfb3237d169fffc8c3a79864ecbf4c27980%17Foriginal,8,3,1885188698
셀프빨래방,서울 중구 신당동 160-14,서울 중구 퇴계로90길 5,127.022298,37.56503104,,https://img1.kakaocdn.net/relay/local/R680x420/?fname=http%3A%2F%2Ft1.daumcdn.net%2Flocal%2FkakaomapPhoto%2Freview%2F198b0cfb3237d169fffc8c3a79864ecbf4c27980%18Foriginal,6,6,974045810
코인빨래방,서울 종로구 효제동 197-6,서울 종로구 종로35가길 7-3,127.0042223,37.57216896,,https://img1.kakaocdn.net/relay/local/R680x420/?fname=http%3A%2F%2Ft1.daumcdn.net%2Flocal%2FkakaomapPhoto%2Freview%2F198b0cfb3237d169fffc8c3a79864ecbf4c27980%19Foriginal,6,6,927668429
빨래터,서울 종로구 충신동 123,서울 종로구 율곡로20길 27,127.0039576,37.57481069,0507-1345-0976,https://img1.kakaocdn.net/relay/local/R680x420/?fname=http%3A%2F%2Ft1.daumcdn.net%2Flocal%2FkakaomapPhoto%2Freview%2F198b0cfb3237d169fffc8c3a79864ecbf4c27980%20Foriginal,6,4,1629005464
코인워시24빨래터 창신점,서울 종로구 창신동 647-16,서울 종로구 창신길 47,127.0104553,37.57375793,070-3893-9033,https://img1.kakaocdn.net/relay/local/R680x420/?fname=http%3A%2F%2Ft1.daumcdn.net%2Flocal%2FkakaomapPhoto%2Freview%2F198b0cfb3237d169fffc8c3a79864ecbf4c27980%21Foriginal,9,4,15109141
크린토피아 코인워시365 이태원보광점,서울 용산구 보광동 274-17,서울 용산구 우사단로2길 1,126.996882,37.53079516,02-701-4124,https://img1.kakaocdn.net/relay/local/R680x420/?fname=http%3A%2F%2Ft1.daumcdn.net%2Flocal%2FkakaomapPhoto%2Freview%2F198b0cfb3237d169fffc8c3a79864ecbf4c27980%22Foriginal,8,3,297891335
크린토피아 코인워시365 용문시장점,서울 용산구 용문동 1-90,서울 용산구 원효로53길 41,126.9619014,37.5375826,,https://img1.kakaocdn.net/relay/local/R680x420/?fname=http%3A%2F%2Ft1.daumcdn.net%2Flocal%2FkakaomapPhoto%2Freview%2F198b0cfb3237d169fffc8c3a79864ecbf4c27980%23Foriginal,5,4,1298266385
화이트365 숙대입구역점,서울 용산구 청파동3가 109-5,서울 용산구 청파로47길 37-26,126.9677776,37.5442121,,https://img1.kakaocdn.net/relay/local/R680x420/?fname=http%3A%2F%2Ft1.daumcdn.net%2Flocal%2FkakaomapPhoto%2Freview%2F198b0cfb3237d169fffc8c3a79864ecbf4c27980%24Foriginal,8,3,717156550
크린토피아 코인워시365 용산해방촌점,서울 용산구 용산동2가 26-7,서울 용산구 신흥로12길 5,126.9880316,37.54344734,02-701-4124,https://img1.kakaocdn.net/relay/local/R680x420/?fname=http%3A%2F%2Ft1.daumcdn.net%2Flocal%2FkakaomapPhoto%2Freview%2F198b0cfb3237d169fffc8c3a79864ecbf4c27980%25Foriginal,7,6,27138876
워시엔조이 용산남영점,서울 용산구 원효로1가 105-1,서울 용산구 원효로97길 21,126.9693017,37.54183747,,https://img1.kakaocdn.net/relay/local/R680x420/?fname=http%3A%2F%2Ft1.daumcdn.net%2Flocal%2FkakaomapPhoto%2Freview%2F198b0cfb3237d169fffc8c3a79864ecbf4c27980%26Foriginal,10,5,266712954
크린토피아 코인워시365 이촌2동점,서울 용산구 이촌동 203-52,서울 용산구 이촌로18길 21,126.9548435,37.52593557,,https://img1.kakaocdn.net/relay/local/R680x420/?fname=http%3A%2F%2Ft1.daumcdn.net%2Flocal%2FkakaomapPhoto%2Freview%2F198b0cfb3237d169fffc8c3a79864ecbf4c27980%27Foriginal,5,5,1729832791
워시엔조이 경리단길점,서울 용산구 이태원동 212-25,서울 용산구 회나무로26길 7,126.9915455,37.53941567,,https://img1.kakaocdn.net/relay/local/R680x420/?fname=http%3A%2F%2Ft1.daumcdn.net%2Flocal%2FkakaomapPhoto%2Freview%2F198b0cfb3237d169fffc8c3a79864ecbf4c27980%28Foriginal,6,6,1670097181
화이트365 이태원해방촌점,서울 용산구 용산동2가 37-4,서울 용산구 신흥로 47,126.9874444,37.54282469,,https://img1.kakaocdn.net/relay/local/R680x420/?fname=http%3A%2F%2Ft1.daumcdn.net%2Flocal%2FkakaomapPhoto%2Freview%2F198b0cfb3237d169fffc8c3a79864ecbf4c27980%29Foriginal,5,5,1693309924
워시피플 후암동108계단점,서울 용산구 후암동 415-45,서울 용산구 신흥로36길 5-1,126.9820189,37.54645321,,https://img1.kakaocdn.net/relay/local/R680x420/?fname=http%3A%2F%2Ft1.daumcdn.net%2Flocal%2FkakaomapPhoto%2Freview%2F198b0cfb3237d169fffc8c3a79864ecbf4c27980%30Foriginal,9,4,151711725
24시셀프빨래방플러스 한남점,서울 용산구 한남동 96-3,서울 용산구 독서당로 39,127.0069421,37.531523,070-8098-7657,https://img1.kakaocdn.net/relay/local/R680x420/?fname=http%3A%2F%2Ft1.daumcdn.net%2Flocal%2FkakaomapPhoto%2Freview%2F198b0cfb3237d169fffc8c3a79864ecbf4c27980%31Foriginal,5,5,60056234
셀프빨래방 후암점,서울 용산구 후암동 103-6,서울 용산구 한강대로104길 77,126.9766924,37.55034099,,https://img1.kakaocdn.net/relay/local/R680x420/?fname=http%3A%2F%2Ft1.daumcdn.net%2Flocal%2FkakaomapPhoto%2Freview%2F198b0cfb3237d169fffc8c3a79864ecbf4c27980%32Foriginal,4,4,149690151
코인워시24빨래터 숙대점,서울 용산구 원효로1가 38-4,서울 용산구 원효로89길 12,126.9685485,37.54067318,02-706-3285,https://img1.kakaocdn.net/relay/local/R680x420/?fname=http%3A%2F%2Ft1.daumcdn.net%2Flocal%2FkakaomapPhoto%2Freview%2F198b0cfb3237d169fffc8c3a79864ecbf4c27980%33Foriginal,6,6,20526802
더화이트셀프빨래방 원효로점,서울 용산구 문배동 40-31,서울 용산구 백범로 341,126.9682148,37.53798451,0507-1307-5812,https://img1.kakaocdn.net/relay/local/R680x420/?fname=http%3A%2F%2Ft1.daumcdn.net%2Flocal%2FkakaomapPhoto%2Freview%2F198b0cfb3237d169fffc8c3a79864ecbf4c27980%34Foriginal,4,3,496407749
펭귄하우스 용산트럼프월드점,서울 용산구 한강로3가 65-230,서울 용산구 한강대로 26,126.9629699,37.52302816,1544-4335,https://img1.kakaocdn.net/relay/local/R680x420/?fname=http%3A%2F%2Ft1.daumcdn.net%2Flocal%2FkakaomapPhoto%2Freview%2F198b0cfb3237d169fffc8c3a79864ecbf4c27980%35Foriginal,10,7,140752145
펭귄하우스 래미안용산점,서울 용산구 한강로2가 408,서울 용산구 한강대로 95,126.9666303,37.52880828,1544-4335,https://img1.kakaocdn.net/relay/local/R680x420/?fname=http%3A%2F%2Ft1.daumcdn.net%2Flocal%2FkakaomapPhoto%2Freview%2F198b0cfb3237d169fffc8c3a79864ecbf4c27980%36Foriginal,7,3,964164992
크린토피아 코인워시 서울숲힐스테이트점,서울 성동구 성수동1가 33-5,서울 성동구 뚝섬로5길 11,127.0506241,37.54110621,02-463-1358,https://img1.kakaocdn.net/relay/local/R680x420/?fname=http%3A%2F%2Ft1.daumcdn.net%2Flocal%2FkakaomapPhoto%2Freview%2F198b0cfb3237d169fffc8c3a79864ecbf4c27980%37Foriginal,8,4,23484610
크린토피아 코인워시 왕십리역점,서울 성동구 행당동 1-95,서울 성동구 마조로9길 6-6,127.0410445,37.56142203,02-6082-8289,https://img1.kakaocdn.net/relay/local/R680x420/?fname=http%3A%2F%2Ft1.daumcdn.net%2Flocal%2FkakaomapPhoto%2Freview%2F198b0cfb3237d169fffc8c3a79864ecbf4c27980%38Foriginal,6,3,1604877478
크린토피아 코인워시 왕십리텐즈힐점,서울 성동구 하왕십리동 1066,서울 성동구 무학로 33,127.0271694,37.56753479,02-2298-1999,https://img1.kakaocdn.net/relay/local/R680x420/?fname=http%3A%2F%2Ft1.daumcdn.net%2Flocal%2FkakaomapPhoto%2Freview%2F198b0cfb3237d169fffc8c3a79864ecbf4c27980%39Foriginal,4,4,27157154
크린토피아 코인워시365 왕십리센트라스점,서울 성동구 상왕십리동 816-1,서울 성동구 왕십리로 410,127.0253859,37.56541605,02-2295-3586,https://img1.kakaocdn.net/relay/local/R680x420/?fname=http%3A%2F%2Ft1.daumcdn.net%2Flocal%2FkakaomapPhoto%2Freview%2F198b0cfb3237d169fffc8c3a79864ecbf4c27980%40Foriginal,4,4,190862970
크린토피아 코인워시 왕십리홍익점,서울 성동구 홍익동 122-4,서울 성동구 왕십리로20길 41,127.0356046,37.5654999,02-2295-8858,https://img1.kakaocdn.net/relay/local/R680x420/?fname=http%3A%2F%2Ft1.daumcdn.net%2Flocal%2FkakaomapPhoto%2Freview%2F198b0cfb3237d169fffc8c3a79864ecbf4c27980%41Foriginal,4,5,1525869411
화이트365 사근동점,서울 성동구 사근동 204-2,서울 성동구 사근동길 61,127.0477266,37.56110958,,https://img1.kakaocdn.net/relay/local/R680x420/?fname=http%3A%2F%2Ft1.daumcdn.net%2Flocal%2FkakaomapPhoto%2Freview%2F198b0cfb3237d169fffc8c3a79864ecbf4c27980%42Foriginal,9,6,132938101
금호셀프빨래방,서울 성동구 금호동4가 1375,서울 성동구 장터2길 19,127.0187578,37.54806768,010-4369-8881,https://img1.kakaocdn.net/relay/local/R680x420/?fname=http%3A%2F%2Ft1.daumcdn.net%2Flocal%2FkakaomapPhoto%2Freview%2F198b0cfb3237d169fffc8c3a79864ecbf4c27980%43Foriginal,10,6,879803828
코인워시24 한양대점,서울 성동구 행당동 1-64,서울 성동구 마조로9길 11,127.0401977,37.56116283,02-2297-8585,https://img1.kakaocdn.net/relay/local/R680x420/?fname=http%3A%2F%2Ft1.daumcdn.net%2Flocal%2FkakaomapPhoto%2Freview%2F198b0cfb3237d169fffc8c3a79864ecbf4c27980%44Foriginal,6,4,8103926
24시셀프빨래방 행당점,서울 성동구 하왕십리동 985-9,서울 성동구 무학봉15가길 7,127.0302784,37.56109732,,https://img1.kakaocdn.net/relay/local/R680x420/?fname=http%3A%2F%2Ft1.daumcdn.net%2Flocal%2FkakaomapPhoto%2Freview%2F198b0cfb3237d169fffc8c3a79864ecbf4c27980%45Foriginal,10,5,1788656521
펭귄하우스 성동점,서울 성동구 행당동 286-23,서울 성동구 무학봉28길 24,127.0342218,37.56126203,1544-4335,https://img1.kakaocdn.net/relay/local/R680x420/?fname=http%3A%2F%2Ft1.daumcdn.net%2Flocal%2FkakaomapPhoto%2Freview%2F198b0cfb3237d169fffc8c3a79864ecbf4c27980%46Foriginal,3,3,39651202
AMPM워시큐 답십리점,서울 성동구 용답동 75-8,서울 성동구 용답중앙11길 18,127.0523616,37.5662559,,https://img1.kakaocdn.net/relay/local/R680x420/?fname=http%3A%2F%2Ft1.daumcdn.net%2Flocal%2FkakaomapPhoto%2Freview%2F198b0cfb3237d169fffc8c3a79864ecbf4c27980%47Foriginal,6,5,1032920118
셀피아 서울성수동점,서울 성동구 성수동2가 565-20,서울 성동구 성덕정17길 3,127.0551973,37.53754701,1544-0419,https://img1.kakaocdn.net/relay/local/R680x420/?fname=http%3A%2F%2Ft1.daumcdn.net%2Flocal%2FkakaomapPhoto%2Freview%2F198b0cfb3237d169fffc8c3a79864ecbf4c27980%48Foriginal,4,3,2041336720
워시하우스 왕십리점,서울 성동구 상왕십리동 816,서울 성동구 왕십리로 410,127.0237655,37.56694267,010-7157-8551,https://img1.kakaocdn.net/relay/local/R680x420/?fname=http%3A%2F%2Ft1.daumcdn.net%2Flocal%2FkakaomapPhoto%2Freview%2F198b0cfb3237d169fffc8c3a79864ecbf4c27980%49Foriginal,5,4,1049021258
위워시 왕십리점,서울 성동구 도선동 185-25,서울 성동구 왕십리로24길 21-1,127.0342458,37.56443353,,https://img1.kakaocdn.net/relay/local/R680x420/?fname=http%3A%2F%2Ft1.daumcdn.net%2Flocal%2FkakaomapPhoto%2Freview%2F198b0cfb3237d169fffc8c3a79864ecbf4c27980%50Foriginal,7,6,1660134295
블루워시 성수점,서울 성동구 성수동1가 13-103,서울 성동구 상원길 58,127.0481998,37.54908287,,https://img1.kakaocdn.net/relay/local/R680x420/?fname=http%3A%2F%2Ft1.daumcdn.net%2Flocal%2FkakaomapPhoto%2Freview%2F198b0cfb3237d169fffc8c3a79864ecbf4c27980%51Foriginal,8,5,358320114
크린토피아 코인워시365 광진아크로텔점,서울 광진구 자양동 779-5,서울 광진구 아차산로 355,127.0825649,37.53736887,02-2024-4411,https://img1.kakaocdn.net/relay/local/R680x420/?fname=http%3A%2F%2Ft1.daumcdn.net%2Flocal%2FkakaomapPhoto%2Freview%2F198b0cfb3237d169fffc8c3a79864ecbf4c27980%52Foriginal,5,4,26458704
화이트365 건대입구역점,서울 광진구 화양동 46-3,서울 광진구 동일로24길 56,127.06811,37.5430652,,https://img1.kakaocdn.net/relay/local/R680x420/?fname=http%3A%2F%2Ft1.daumcdn.net%2Flocal%2FkakaomapPhoto%2Freview%2F198b0cfb3237d169fffc8c3a79864ecbf4c27980%53Foriginal,10,4,395858674
크린토피아 코인워시 광진자양시장점,서울 광진구 자양동 634,서울 광진구 자양로13길 73-1,127.0808542,37.5332687,02-446-8987,https://img1.kakaocdn.net/relay/local/R680x420/?fname=http%3A%2F%2Ft1.daumcdn.net%2Flocal%2FkakaomapPhoto%2Freview%2F198b0cfb3237d169fffc8c3a79864ecbf4c27980%54Foriginal,10,6,22252317
워시엔조이 중곡군자역점,서울 광진구 중곡동 140-17,서울 광진구 용마산로1길 103,127.0830704,37.55652735,010-9097-8005,https://img1.kakaocdn.net/relay/local/R680x420/?fname=http%3A%2F%2Ft1.daumcdn.net%2Flocal%2FkakaomapPhoto%2Freview%2F198b0cfb3237d169fffc8c3a79864ecbf4c27980%55Foriginal,3,3,1231412850
워시엔조이 화양점,서울 광진구 화양동 132-64,서울 광진구 능동로17길 55,127.0702996,37.54675081,,https://img1.kakaocdn.net/relay/local/R680x420/?fname=http%3A%2F%2Ft1.daumcdn.net%2Flocal%2FkakaomapPhoto%2Freview%2F198b0cfb3237d169fffc8c3a79864ecbf4c27980%56Foriginal,5,4,1938604553
화이트365 구의점,서울 광진구 구의동 257-40,서울 광진구 아차산로53길 51-10,127.0851901,37.53957085,,https://img1.kakaocdn.net/relay/local/R680x420/?fname=http%3A%2F%2Ft1.daumcdn.net%2Flocal%2FkakaomapPhoto%2Freview%2F198b0cfb3237d169fffc8c3a79864ecbf4c27980%57Foriginal,4,3,768996650
화이트365 자양점,서울 광진구 자양동 636-21,서울 광진구 뚝섬로54길 10,127.0806393,37.53114428,,https://img1.kakaocdn.net/relay/local/R680x420/?fname=http%3A%2F%2Ft1.daumcdn.net%2Flocal%2FkakaomapPhoto%2Freview%2F198b0cfb3237d169fffc8c3a79864ecbf4c27980%58Foriginal,9,4,963432869
워시엔조이 건대자양점,서울 광진구 자양동 229-29,서울 광진구 아차산로40길 41,127.0780872,37.53578615,,https://img1.kakaocdn.net/relay/local/R680x420/?fname=http%3A%2F%2Ft1.daumcdn.net%2Flocal%2FkakaomapPhoto%2Freview%2F198b0cfb3237d169fffc8c3a79864ecbf4c27980%59Foriginal,6,5,823351541
워시엔조이 자양점,서울 광진구 자양동 665-19,서울 광진구 자양로3길 70,127.0829092,37.52949748,,https://img1.kakaocdn.net/relay/local/R680x420/?fname=http%3A%2F%2Ft1.daumcdn.net%2Flocal%2FkakaomapPhoto%2Freview%2F198b0cfb3237d169fffc8c3a79864ecbf4c27980%60Foriginal,10,4,1770274498
워시테리아 군자점,서울 광진구 군자동 469-10,서울 광진구 면목로 29,127.076072,37.55679876,1577-8394,https://img1.kakaocdn.net/relay/local/R680x420/?fname=http%3A%2F%2Ft1.daumcdn.net%2Flocal%2FkakaomapPhoto%2Freview%2F198b0cfb3237d169fffc8c3a79864ecbf4c27980%61Foriginal,8,3,372140370
워시엔조이 군자점,서울 광진구 군자동 117-13,서울 광진구 동일로52길 21,127.0723576,37.55453419,,https://img1.kakaocdn.net/relay/local/R680x420/?fname=http%3A%2F%2Ft1.daumcdn.net%2Flocal%2FkakaomapPhoto%2Freview%2F198b0cfb3237d169fffc8c3a79864ecbf4c27980%62Foriginal,6,3,1226569884
워시엔조이 구의점,서울 광진구 구의동 222-39,서울 광진구 구의로 37,127.0897159,37.54124516,,https://img1.kakaocdn.net/relay/local/R680x420/?fname=http%3A%2F%2Ft1.daumcdn.net%2Flocal%2FkakaomapPhoto%2Freview%2F198b0cfb3237d169fffc8c3a79864ecbf4c27980%63Foriginal,10,4,27233698
화이트365 중곡점,서울 광진구 중곡동 127-33,서울 광진구 용마산로5길 26,127.0864217,37.55764038,,https://img1.kakaocdn.net/relay/local/R680x420/?fname=http%3A%2F%2Ft1.daumcdn.net%2Flocal%2FkakaomapPhoto%2Freview%2F198b0cfb3237d169fffc8c3a79864ecbf4c27980%64Foriginal,8,4,35812106
크린업24 화양점,서울 광진구 화양동 37-40,서울 광진구 아차산로23길 67,127.0673435,37.54502712,,https://img1.kakaocdn.net/relay/local/R680x420/?fname=http%3A%2F%2Ft1.daumcdn.net%2Flocal%2FkakaomapPhoto%2Freview%2F198b0cfb3237d169fffc8c3a79864ecbf4c27980%65Foriginal,4,6,1377930139
워시엔조이 중곡점,서울 광진구 중곡동 98-21,서울 광진구 용마산로2길 54,127.0910464,37.55600249,,https://img1.kakaocdn.net/relay/local/R680x420/?fname=http%3A%2F%2Ft1.daumcdn.net%2Flocal%2FkakaomapPhoto%2Freview%2F198b0cfb3237d169fffc8c3a79864ecbf4c27980%66Foriginal,4,4,27244528
크린토피아 코인워시 장안시장점,서울 동대문구 장안동 183-16,서울 동대문구 답십리로64길 103,127.0652445,37.56852901,02-2214-3868,https://img1.kakaocdn.net/relay/local/R680x420/?fname=http%3A%2F%2Ft1.daumcdn.net%2Flocal%2FkakaomapPhoto%2Freview%2F198b0cfb3237d169fffc8c3a79864ecbf4c27980%67Foriginal,4,3,2023562807
크린토피아 코인워시 답십리점,서울 동대문구 답십리동 1003,서울 동대문구 답십리로 130,127.0517773,37.5725397,02-2246-4466,https://img1.kakaocdn.net/relay/local/R680x420/?fname=http%3A%2F%2Ft1.daumcdn.net%2Flocal%2FkakaomapPhoto%2Freview%2F198b0cfb3237d169fffc8c3a79864ecbf4c27980%68Foriginal,6,5,1670573064
워시엔조이 용두점,서울 동대문구 용두동 102-2,서울 동대문구 무학로34길 50,127.0335223,37.57638814,,https://img1.kakaocdn.net/relay/local/R680x420/?fname=http%3A%2F%2Ft1.daumcdn.net%2Flocal%2FkakaomapPhoto%2Freview%2F198b0cfb3237d169fffc8c3a79864ecbf4c27980%69Foriginal,7,3,717251843
화이트365 경희대점,서울 동대문구 회기동 105-35,서울 동대문구 회기로 134,127.0512785,37.59124815,,https://img1.kakaocdn.net/relay/local/R680x420/?fname=http%3A%2F%2Ft1.daumcdn.net%2Flocal%2FkakaomapPhoto%2Freview%2F198b0cfb3237d169fffc8c3a79864ecbf4c27980%70Foriginal,3,4,848110789
워시엔조이 전농점,서울 동대문구 전농동 212-44,서울 동대문구 서울시립대로18길 4,127.0518736,37.58081079,,https://img1.kakaocdn.net/relay/local/R680x420/?fname=http%3A%2F%2Ft1.daumcdn.net%2Flocal%2FkakaomapPhoto%2Freview%2F198b0cfb3237d169fffc8c3a79864ecbf4c27980%71Foriginal,3,4,995887118
크린토피아 코인워시365 동대문전농배봉초교점,서울 동대문구 전농동 4-3,서울 동대문구 한천로39길 27,127.066702,37.5782265,,https://img1.kakaocdn.net/relay/local/R680x420/?fname=http%3A%2F%2Ft1.daumcdn.net%2Flocal%2FkakaomapPhoto%2Freview%2F198b0cfb3237d169fffc8c3a79864ecbf4c27980%72Foriginal,6,6,726447771
워시엔조이 장안점,서울 동대문구 장안동 339-27,서울 동대문구 장한로18길 59,127.0723026,37.56786176,010-9920-6195,https://img1.kakaocdn.net/relay/local/R680x420/?fname=http%3A%2F%2Ft1.daumcdn.net%2Flocal%2FkakaomapPhoto%2Freview%2F198b0cfb3237d169fffc8c3a79864ecbf4c27980%73Foriginal,10,3,26551007
크린토피아 코인워시 이문2동점,서울 동대문구 이문동 264-277,서울 동대문구 천장산로7길 40,127.0555592,37.59834242,02-960-7840,https://img1.kakaocdn.net/relay/local/R680x420/?fname=http%3A%2F%2Ft1.daumcdn.net%2Flocal%2FkakaomapPhoto%2Freview%2F198b0cfb3237d169fffc8c3a79864ecbf4c27980%74Foriginal,10,6,2074472615
화이트365 제기동역점,서울 동대문구 용두동 105-1,서울 동대문구 왕산로16가길 36,127.0332826,37.57715585,,https://img1.kakaocdn.net/relay/local/R680x420/?fname=http%3A%2F%2Ft1.daumcdn.net%2Flocal%2FkakaomapPhoto%2Freview%2F198b0cfb3237d169fffc8c3a79864ecbf4c27980%75Foriginal,4,4,879945791
워시엔조이 셀프빨래방 장한평점,서울 동대문구 장안동 405-9,서울 동대문구 천호대로79길 29,127.0631126,37.563854,,https://img1.kakaocdn.net/relay/local/R680x420/?fname=http%3A%2F%2Ft1.daumcdn.net%2Flocal%2FkakaomapPhoto%2Freview%2F198b0cfb3237d169fffc8c3a79864ecbf4c27980%76Foriginal,10,4,202582117
워시엔조이 셀프빨래방 청계리버리치점,서울 동대문구 용두동 255-58,서울 동대문구 청계천로 483,127.0306987,37.57026394,0507-1361-5956,https://img1.kakaocdn.net/relay/local/R680x420/?fname=http%3A%2F%2Ft1.daumcdn.net%2Flocal%2FkakaomapPhoto%2Freview%2F198b0cfb3237d169fffc8c3a79864ecbf4c27980%77Foriginal,3,4,1462815360
크린업24 제기동점,서울 동대문구 제기동 252,서울 동대문구 왕산로23길 89,127.034775,37.58268392,,https://img1.kakaocdn.net/relay/local/R680x420/?fname=http%3A%2F%2Ft1.daumcdn.net%2Flocal%2FkakaomapPhoto%2Freview%2F198b0cfb3237d169fffc8c3a79864ecbf4c27980%78Foriginal,9,5,867505967
워시엔조이 이문동점,서울 동대문구 이문동 255-192,서울 동대문구 이문로 168,127.0622565,37.60148894,,https://img1.kakaocdn.net/relay/local/R680x420/?fname=http%3A%2F%2Ft1.daumcdn.net%2Flocal%2FkakaomapPhoto%2Freview%2F198b0cfb3237d169fffc8c3a79864ecbf4c27980%79Foriginal,10,3,71546885
크린업24 장안점,서울 동대문구 장안동 373-8,서울 동대문구 장한로21길 9,127.0694747,37.56995377,,https://img1.kakaocdn.net/relay/local/R680x420/?fname=http%3A%2F%2Ft1.daumcdn.net%2Flocal%2FkakaomapPhoto%2Freview%2F198b0cfb3237d169fffc8c3a79864ecbf4c27980%80Foriginal,7,6,686821051
크린토피아 코인워시365 이문대림점,서울 동대문구 이문동 250-1,서울 동대문구 이문로 200,127.0625443,37.60433232,02-957-1995,https://img1.kakaocdn.net/relay/local/R680x420/?fname=http%3A%2F%2Ft1.daumcdn.net%2Flocal%2FkakaomapPhoto%2Freview%2F198b0cfb3237d169fffc8c3a79864ecbf4c27980%81Foriginal,4,4,1850519524
크린토피아 코인워시 중랑제일시장점,서울 중랑구 묵동 250-13,서울 중랑구 중랑역로 142,127.0770735,37.60613291,02-949-3379,https://img1.kakaocdn.net/relay/local/R680x420/?fname=http%3A%2F%2Ft1.daumcdn.net%2Flocal%2FkakaomapPhoto%2Freview%2F198b0cfb3237d169fffc8c3a79864ecbf4c27980%82Foriginal,10,4,1409966691
크린토피아 코인워시 중랑상봉2동점,서울 중랑구 상봉동 125-19,서울 중랑구 동일로110길 13,127.0811081,37.59216485,02-491-5445,https://img1.kakaocdn.net/relay/local/R680x420/?fname=http%3A%2F%2Ft1.daumcdn.net%2Flocal%2FkakaomapPhoto%2Freview%2F198b0cfb3237d169fffc8c3a79864ecbf4c27980%83Foriginal,9,3,297310552
크린토피아 코인워시 면목중앙점,서울 중랑구 면목동 428-42,서울 중랑구 면목로56길 28,127.0898757,37.58391622,02-433-5008,https://img1.kakaocdn.net/relay/local/R680x420/?fname=http%3A%2F%2Ft1.daumcdn.net%2Flocal%2FkakaomapPhoto%2Freview%2F198b0cfb3237d169fffc8c3a79864ecbf4c27980%84Foriginal,7,6,2085261085
워시엔조이 망우점,서울 중랑구 망우동 509-52,서울 중랑구 봉우재로57길 58,127.094874,37.59714248,,https://img1.kakaocdn.net/relay/local/R680x420/?fname=http%3A%2F%2Ft1.daumcdn.net%2Flocal%2FkakaomapPhoto%2Freview%2F198b0cfb3237d169fffc8c3a79864ecbf4c27980%85Foriginal,8,4,1076349845
워시엔조이 중랑신내점,서울 중랑구 신내동 648,서울 중랑구 신내로 225,127.0908446,37.61726654,,https://img1.kakaocdn.net/relay/local/R680x420/?fname=http%3A%2F%2Ft1.daumcdn.net%2Flocal%2FkakaomapPhoto%2Freview%2F198b0cfb3237d169fffc8c3a79864ecbf4c27980%86Foriginal,6,4,2078827250
워시엔조이 로프트원태릉입구역점,서울 중랑구 묵동 169-12,서울 중랑구 동일로 952,127.0768746,37.61536637,02-973-2111,https://img1.kakaocdn.net/relay/local/R680x420/?fname=http%3A%2F%2Ft1.daumcdn.net%2Flocal%2FkakaomapPhoto%2Freview%2F198b0cfb3237d169fffc8c3a79864ecbf4c27980%87Foriginal,4,3,1941918116
화이트365 사가정역점,서울 중랑구 면목동 341-44,서울 중랑구 면목로33길 52,127.0830158,37.5766304,,https://img1.kakaocdn.net/relay/local/R680x420/?fname=http%3A%2F%2Ft1.daumcdn.net%2Flocal%2FkakaomapPhoto%2Freview%2F198b0cfb3237d169fffc8c3a79864ecbf4c27980%88Foriginal,6,3,811434132
워시엔조이 중랑중화점,서울 중랑구 중화동 282-12,서울 중랑구 동일로140길 15,127.0801395,37.60437394,,https://img1.kakaocdn.net/relay/local/R680x420/?fname=http%3A%2F%2Ft1.daumcdn.net%2Flocal%2FkakaomapPhoto%2Freview%2F198b0cfb3237d169fffc8c3a79864ecbf4c27980%89Foriginal,8,6,253259046
워시엔조이 중랑면목점,서울 중랑구 면목동 134-26,서울 중랑구 봉우재로20가길 11,127.0814591,37.591069,,https://img1.kakaocdn.net/relay/local/R680x420/?fname=http%3A%2F%2Ft1.daumcdn.net%2Flocal%2FkakaomapPhoto%2Freview%2F198b0cfb3237d169fffc8c3a79864ecbf4c27980%90Foriginal,6,3,1817065007
화이트365 태릉점,서울 중랑구 묵동 396,,127.0826678,37.61715452,,https://img1.kakaocdn.net/relay/local/R680x420/?fname=http%3A%2F%2Ft1.daumcdn.net%2Flocal%2FkakaomapPhoto%2Freview%2F198b0cfb3237d169fffc8c3a79864ecbf4c27980%91Foriginal,8,6,86985335
워시엔조이 면목5동점,서울 중랑구 면목동 158-35,서울 중랑구 동일로96가길 13,127.0814074,37.58411338,010-6488-0555,https://img1.kakaocdn.net/relay/local/R680x420/?fname=http%3A%2F%2Ft1.daumcdn.net%2Flocal%2FkakaomapPhoto%2Freview%2F198b0cfb3237d169fffc8c3a79864ecbf4c27980%92Foriginal,9,5,1384241678
크린업24 면목점,서울 중랑구 면목동 97-10,서울 중랑구 면목로78길 41,127.0894853,37.59064153,,https://img1.kakaocdn.net/relay/local/R680x420/?fname=http%3A%2F%2Ft1.daumcdn.net%2Flocal%2FkakaomapPhoto%2Freview%2F198b0cfb3237d169fffc8c3a79864ecbf4c27980%93Foriginal,8,3,1240471243
크린업24 상봉점,서울 중랑구 상봉동 222-35,서울 중랑구 봉화산로 112,127.086732,37.60268082,,https://img1.kakaocdn.net/relay/local/R680x420/?fname=http%3A%2F%2Ft1.daumcdn.net%2Flocal%2FkakaomapPhoto%2Freview%2F198b0cfb3237d169fffc8c3a79864ecbf4c27980%94Foriginal,9,4,906421873
크린토피아 코인워시 중랑신내우디안점,서울 중랑구 신내동 807,서울 중랑구 신내역로 213,127.1065381,37.61984826,02-3423-0723,https://img1.kakaocdn.net/relay/local/R680x420/?fname=http%3A%2F%2Ft1.daumcdn.net%2Flocal%2FkakaomapPhoto%2Freview%2F198b0cfb3237d169fffc8c3a79864ecbf4c27980%95Foriginal,4,5,1842249104
우리셀프빨래방 협동조합 망우점,서울 중랑구 망우동 513-67,서울 중랑구 봉우재로 207,127.0958586,37.59491803,010-9068-7099,https://img1.kakaocdn.net/relay/local/R680x420/?fname=http%3A%2F%2Ft1.daumcdn.net%2Flocal%2FkakaomapPhoto%2Freview%2F198b0cfb3237d169fffc8c3a79864ecbf4c27980%96Foriginal,3,3,508629125
크린토피아 코인워시 성신여대점,서울 성북구 동선동2가 185,서울 성북구 보문로30나길 2,127.0203261,37.5894087,02-927-3305,https://img1.kakaocdn.net/relay/local/R680x420/?fname=http%3A%2F%2Ft1.daumcdn.net%2Flocal%2FkakaomapPhoto%2Freview%2F198b0cfb3237d169fffc8c3a79864ecbf4c27980%97Foriginal,8,6,538986592
크린토피아 코인워시365 석계역점,서울 성북구 석관동 130-22,서울 성북구 한천로80길 46,127.0643724,37.61264566,010-3173-5313,https://img1.kakaocdn.net/relay/local/R680x420/?fname=http%3A%2F%2Ft1.daumcdn.net%2Flocal%2FkakaomapPhoto%2Freview%2F198b0cfb3237d169fffc8c3a79864ecbf4c27980%98Foriginal,9,6,1217939695
크린토피아 코인워시 길음래미안점,서울 성북구 길음동 1283-4,서울 성북구 길음로 20,127.0230935,37.60474667,02-916-2030,https://img1.kakaocdn.net/relay/local/R680x420/?fname=http%3A%2F%2Ft1.daumcdn.net%2Flocal%2FkakaomapPhoto%2Freview%2F198b0cfb3237d169fffc8c3a79864ecbf4c27980%99Foriginal,9,4,13077427
크린토피아 코인워시 돈암초교점,서울 성북구 동소문동4가 222,서울 성북구 동소문로13길 21,127.0122877,37.59267501,02-928-0220,https://img1.kakaocdn.net/relay/local/R680x420/?fname=http%3A%2F%2Ft1.daumcdn.net%2Flocal%2FkakaomapPhoto%2Freview%2F198b0cfb3237d169fffc8c3a79864ecbf4c27980%100Foriginal,8,4,265629894
크린토피아 코인워시 성북장위동점,서울 성북구 장위동 237-143,서울 성북구 돌곶이로 171,127.0499772,37.6161773,02-909-8181,https://img1.kakaocdn.net/relay/local/R680x420/?fname=http%3A%2F%2Ft1.daumcdn.net%2Flocal%2FkakaomapPhoto%2Freview%2F198b0cfb3237d169fffc8c3a79864ecbf4c27980%101Foriginal,10,6,469838803
크린토피아 코인워시 서경대점,서울 성북구 정릉동 266-108,서울 성북구 보국문로16길 34,127.0095273,37.61145551,02-909-0987,https://img1.kakaocdn.net/relay/local/R680x420/?fname=http%3A%2F%2Ft1.daumcdn.net%2Flocal%2FkakaomapPhoto%2Freview%2F198b0cfb3237d169fffc8c3a79864ecbf4c27980%102Foriginal,5,6,969329100
크린토피아 코인워시 성북장위루첸점,서울 성북구 장위동 317,서울 성북구 월계로36길 27,127.0479759,37.61985146,02-910-8877,https://img1.kakaocdn.net/relay/local/R680x420/?fname=http%3A%2F%2Ft1.daumcdn.net%2Flocal%2FkakaomapPhoto%2Freview%2F198b0cfb3237d169fffc8c3a79864ecbf4c27980%103Foriginal,4,4,1857000391
워시엔조이 성북종암점,서울 성북구 종암동 45-67,서울 성북구 종암로13길 4-13,127.0346956,37.59704036,,https://img1.kakaocdn.net/relay/local/R680x420/?fname=http%3A%2F%2Ft1.daumcdn.net%2Flocal%2FkakaomapPhoto%2Freview%2F198b0cfb3237d169fffc8c3a79864ecbf4c27980%104Foriginal,10,4,1950470960
크린토피아 코인워시365 성북종암동점,서울 성북구 종암동 3-377,서울 성북구 월곡로 58,127.0394654,37.59749116,,https://img1.kakaocdn.net/relay/local/R680x420/?fname=http%3A%2F%2Ft1.daumcdn.net%2Flocal%2FkakaomapPhoto%2Freview%2F198b0cfb3237d169fffc8c3a79864ecbf4c27980%105Foriginal,4,4,154226452
화이트365 안암점,서울 성북구 안암동5가 103-233,서울 성북구 고려대로26길 1,127.0300349,37.58610539,,https://img1.kakaocdn.net/relay/local/R680x420/?fname=http%3A%2F%2Ft1.daumcdn.net%2Flocal%2FkakaomapPhoto%2Freview%2F198b0cfb3237d169fffc8c3a79864ecbf4c27980%106Foriginal,6,3,1962814727
크린업24 동소문점,서울 성북구 동소문동7가 76-1,서울 성북구 아리랑로5길 39,127.0130414,37.5968303,,https://img1.kakaocdn.net/relay/local/R680x420/?fname=http%3A%2F%2Ft1.daumcdn.net%2Flocal%2FkakaomapPhoto%2Freview%2F198b0cfb3237d169fffc8c3a79864ecbf4c27980%107Foriginal,10,3,20238999
크린업24 동덕여대점,서울 성북구 상월곡동 71-7,서울 성북구 장월로1길 74-12,127.043832,37.60550843,010-3834-3440,https://img1.kakaocdn.net/relay/local/R680x420/?fname=http%3A%2F%2Ft1.daumcdn.net%2Flocal%2FkakaomapPhoto%2Freview%2F198b0cfb3237d169fffc8c3a79864ecbf4c27980%108Foriginal,9,5,1981421863
크린업24 정릉점,서울 성북구 정릉동 258-41,서울 성북구 솔샘로24길 57,127.0098266,37.61375841,,https://img1.kakaocdn.net/relay/local/R680x420/?fname=http%3A%2F%2Ft1.daumcdn.net%2Flocal%2FkakaomapPhoto%2Freview%2F198b0cfb3237d169fffc8c3a79864ecbf4c27980%109Foriginal,7,5,27245009
크린업24 종암고대점,서울 성북구 종암동 34-3,서울 성북구 종암로5길 36,127.0338563,37.59410517,,https://img1.kakaocdn.net/relay/local/R680x420/?fname=http%3A%2F%2Ft1.daumcdn.net%2Flocal%2FkakaomapPhoto%2Freview%2F198b0cfb3237d169fffc8c3a79864ecbf4c27980%110Foriginal,4,5,642060552
화이트365 동덕여대점,서울 성북구 상월곡동 64-2,서울 성북구 장월로1길 68,127.0445354,37.60574873,,https://img1.kakaocdn.net/relay/local/R680x420/?fname=http%3A%2F%2Ft1.daumcdn.net%2Flocal%2FkakaomapPhoto%2Freview%2F198b0cfb3237d169fffc8c3a79864ecbf4c27980%111Foriginal,5,6,1909473650
크린토피아 코인워시365 수유1동주민센터점,서울 강북구 수유동 605-646,서울 강북구 삼양로77길 20,127.0169794,37.63000421,02-982-3989,https://img1.kakaocdn.net/relay/local/R680x420/?fname=http%3A%2F%2Ft1.daumcdn.net%2Flocal%2FkakaomapPhoto%2Freview%2F198b0cfb3237d169fffc8c3a79864ecbf4c27980%112Foriginal,8,4,684097200
크린토피아 코인워시 미아역점,서울 강북구 미아동 217-15,서울 강북구 도봉로65길 13,127.0239078,37.62970028,02-6449-0042,https://img1.kakaocdn.net/relay/local/R680x420/?fname=http%3A%2F%2Ft1.daumcdn.net%2Flocal%2FkakaomapPhoto%2Freview%2F198b0cfb3237d169fffc8c3a79864ecbf4c27980%113Foriginal,8,5,483429408
크린토피아 코인워시 강북구청점,서울 강북구 수유동 192-10,서울 강북구 한천로139나길 11,127.0248264,37.63935865,02-903-8333,https://img1.kakaocdn.net/relay/local/R680x420/?fname=http%3A%2F%2Ft1.daumcdn.net%2Flocal%2FkakaomapPhoto%2Freview%2F198b0cfb3237d169fffc8c3a79864ecbf4c27980%114Foriginal,5,4,799865932
크린토피아 코인워시365 수유3동점,서울 강북구 수유동 23-43,서울 강북구 노해로11길 31,127.0208834,37.63881522,,https://img1.kakaocdn.net/relay/local/R680x420/?fname=http%3A%2F%2Ft1.daumcdn.net%2Flocal%2FkakaomapPhoto%2Freview%2F198b0cfb3237d169fffc8c3a79864ecbf4c27980%115Foriginal,9,6,1578150419
화이트365 미아점,서울 강북구 미아동 305-41,서울 강북구 솔매로44길 27,127.0249665,37.6246293,,https://img1.kakaocdn.net/relay/local/R680x420/?fname=http%3A%2F%2Ft1.daumcdn.net%2Flocal%2FkakaomapPhoto%2Freview%2F198b0cfb3237d169fffc8c3a79864ecbf4c27980%116Foriginal,5,5,165461492
크린토피아 코인워시365 강북미아해링턴점,서울 강북구 미아동 1369,서울 강북구 오현로 45,127.0347932,37.6170423,,https://img1.kakaocdn.net/relay/local/R680x420/?fname=http%3A%2F%2Ft1.daumcdn.net%2Flocal%2FkakaomapPhoto%2Freview%2F198b0cfb3237d169fffc8c3a79864ecbf4c27980%117Foriginal,7,4,1640426604
크린업24 미아뉴타운점,서울 강북구 미아동 811-9,서울 강북구 삼양로27길 43,127.0188706,37.61850012,,https://img1.kakaocdn.net/relay/local/R680x420/?fname=http%3A%2F%2Ft1.daumcdn.net%2Flocal%2FkakaomapPhoto%2Freview%2F198b0cfb3237d169fffc8c3a79864ecbf4c27980%118Foriginal,5,4,1248963301
크린토피아 코인워시 수유역점,서울 강북구 수유동 169-5,서울 강북구 도봉로97길 26,127.0281404,37.64231674,02-6448-3536,https://img1.kakaocdn.net/relay/local/R680x420/?fname=http%3A%2F%2Ft1.daumcdn.net%2Flocal%2FkakaomapPhoto%2Freview%2F198b0cfb3237d169fffc8c3a79864ecbf4c27980%119Foriginal,5,5,26808805
크린토피아 코인워시 수유벽산점,서울 강북구 수유동 208-80,서울 강북구 삼양로112길 29,127.0178796,37.64276022,02-990-0571,https://img1.kakaocdn.net/relay/local/R680x420/?fname=http%3A%2F%2Ft1.daumcdn.net%2Flocal%2FkakaomapPhoto%2Freview%2F198b0cfb3237d169fffc8c3a79864ecbf4c27980%120Foriginal,5,3,17722266
워시엔조이 수유역점,서울 강북구 번동 445-50,서울 강북구 오패산로77길 13-1,127.0259449,37.63682844,,https://img1.kakaocdn.net/relay/local/R680x420/?fname=http%3A%2F%2Ft1.daumcdn.net%2Flocal%2FkakaomapPhoto%2Freview%2F198b0cfb3237d169fffc8c3a79864ecbf4c27980%121Foriginal,9,3,1279593853
워시엔조이 강북수유점,서울 강북구 수유동 285-6,서울 강북구 삼양로 485,127.0149095,37.64639881,,https://img1.kakaocdn.net/relay/local/R680x420/?fname=http%3A%2F%2Ft1.daumcdn.net%2Flocal%2FkakaomapPhoto%2Freview%2F198b0cfb3237d169fffc8c3a79864ecbf4c27980%122Foriginal,4,3,1808277583
화이트365 화계역점,서울 강북구 수유동 472-112,서울 강북구 삼양로85길 46,127.0153622,37.63259747,,https://img1.kakaocdn.net/relay/local/R680x420/?fname=http%3A%2F%2Ft1.daumcdn.net%2Flocal%2FkakaomapPhoto%2Freview%2F198b0cfb3237d169fffc8c3a79864ecbf4c27980%123Foriginal,9,4,1731632658
화이트365 수유시장점,서울 강북구 미아동 237-15,서울 강북구 삼양로74길 76,127.0221271,37.6301412,010-7528-3115,https://img1.kakaocdn.net/relay/local/R680x420/?fname=http%3A%2F%2Ft1.daumcdn.net%2Flocal%2FkakaomapPhoto%2Freview%2F198b0cfb3237d169fffc8c3a79864ecbf4c27980%124Foriginal,8,4,741680367
크린토피아 코인워시 강북우이시장점,서울 강북구 수유동 254-4,서울 강북구 한천로160길 9,127.0202552,37.64533485,02-999-3305,https://img1.kakaocdn.net/relay/local/R680x420/?fname=http%3A%2F%2Ft1.daumcdn.net%2Flocal%2FkakaomapPhoto%2Freview%2F198b0cfb3237d169fffc8c3a79864ecbf4c27980%125Foriginal,4,5,304996218
크린업24 길음뉴타운점,서울 강북구 미아동 1261-353,서울 강북구 숭인로 9,127.0230957,37.61174916,,https://img1.kakaocdn.net/relay/local/R680x420/?fname=http%3A%2F%2Ft1.daumcdn.net%2Flocal%2FkakaomapPhoto%2Freview%2F198b0cfb3237d169fffc8c3a79864ecbf4c27980%126Foriginal,4,3,2096220363
크린토피아 코인워시 쌍문중앙점,서울 도봉구 창동 658-2,서울 도봉구 도봉로110나길 62,127.0358754,37.64865036,02-999-8289,https://img1.kakaocdn.net/relay/local/R680x420/?fname=http%3A%2F%2Ft1.daumcdn.net%2Flocal%2FkakaomapPhoto%2Freview%2F198b0cfb3237d169fffc8c3a79864ecbf4c27980%127Foriginal,9,5,997800363
크린토피아 코인워시 쌍문2동점,서울 도봉구 쌍문동 569,서울 도봉구 방학로3길 123,127.0384501,37.6577783,02-905-0127,https://img1.kakaocdn.net/relay/local/R680x420/?fname=http%3A%2F%2Ft1.daumcdn.net%2Flocal%2FkakaomapPhoto%2Freview%2F198b0cfb3237d169fffc8c3a79864ecbf4c27980%128Foriginal,7,4,1350783081
화이트365 도봉점,서울 도봉구 도봉동 62-43,서울 도봉구 도봉로180길 28,127.0473552,37.68241507,,https://img1.kakaocdn.net/relay/local/R680x420/?fname=http%3A%2F%2Ft1.daumcdn.net%2Flocal%2FkakaomapPhoto%2Freview%2F198b0cfb3237d169fffc8c3a79864ecbf4c27980%129Foriginal,8,5,1281998826
크린토피아 코인워시 방학1동점,서울 도봉구 방학동 703,서울 도봉구 방학로2길 82,127.0410434,37.6665674,02-954-8858,https://img1.kakaocdn.net/relay/local/R680x420/?fname=http%3A%2F%2Ft1.daumcdn.net%2Flocal%2FkakaomapPhoto%2Freview%2F198b0cfb3237d169fffc8c3a79864ecbf4c27980%130Foriginal,9,6,1991042351
크린토피아 코인워시365 신창초교점,서울 도봉구 창동 537-15,서울 도봉구 우이천로12길 29,127.0397385,37.63630492,,https://img1.kakaocdn.net/relay/local/R680x420/?fname=http%3A%2F%2Ft1.daumcdn.net%2Flocal%2FkakaomapPhoto%2Freview%2F198b0cfb3237d169fffc8c3a79864ecbf4c27980%131Foriginal,6,3,1224911369
크린토피아 코인워시365 덕성여대점,서울 도봉구 쌍문동 492-23,서울 도봉구 우이천로 481-1,127.0154985,37.65607529,02-990-0707,https://img1.kakaocdn.net/relay/local/R680x420/?fname=http%3A%2F%2Ft1.daumcdn.net%2Flocal%2FkakaomapPhoto%2Freview%2F198b0cfb3237d169fffc8c3a79864ecbf4c27980%132Foriginal,10,3,322144238
화이트365 창동점,서울 도봉구 창동 623-6,서울 도봉구 도봉로106길 71,127.0366578,37.64500294,,https://img1.kakaocdn.net/relay/local/R680x420/?fname=http%3A%2F%2Ft1.daumcdn.net%2Flocal%2FkakaomapPhoto%2Freview%2F198b0cfb3237d169fffc8c3a79864ecbf4c27980%133Foriginal,3,4,2023209908
크린토피아 코인워시 방학초교점,서울 도봉구 방학동 304-30,서울 도봉구 도당로9길 46,127.0320153,37.66296628,02-3492-3232,https://img1.kakaocdn.net/relay/local/R680x420/?fname=http%3A%2F%2Ft1.daumcdn.net%2Flocal%2FkakaomapPhoto%2Freview%2F198b0cfb3237d169fffc8c3a79864ecbf4c27980%134Foriginal,4,3,1474058251
크린토피아 코인워시 쌍문점,서울 도봉구 쌍문동 306-9,서울 도봉구 노해로41길 22,127.0262169,37.64975931,02-902-8285,https://img1.kakaocdn.net/relay/local/R680x420/?fname=http%3A%2F%2Ft1.daumcdn.net%2Flocal%2FkakaomapPhoto%2Freview%2F198b0cfb3237d169fffc8c3a79864ecbf4c27980%135Foriginal,3,4,19748221
크린토피아 코인워시365 도봉신화초교점,서울 도봉구 창동 504-16,서울 도봉구 우이천로4라길 37,127.0423252,37.63249177,,https://img1.kakaocdn.net/relay/local/R680x420/?fname=http%3A%2F%2Ft1.daumcdn.net%2Flocal%2FkakaomapPhoto%2Freview%2F198b0cfb3237d169fffc8c3a79864ecbf4c27980%136Foriginal,5,6,1797509274
워시엔조이 쌍문점,서울 도봉구 쌍문동 349-29,서울 도봉구 우이천로 346-9,127.0256814,37.64789259,,https://img1.kakaocdn.net/relay/local/R680x420/?fname=http%3A%2F%2Ft1.daumcdn.net%2Flocal%2FkakaomapPhoto%2Freview%2F198b0cfb3237d169fffc8c3a79864ecbf4c27980%137Foriginal,3,3,1224778199
크린토피아 코인워시 방학점,서울 도봉구 방학동 263-75,서울 도봉구 도당로 36,127.0351245,37.66139048,02-954-0826,https://img1.kakaocdn.net/relay/local/R680x420/?fname=http%3A%2F%2Ft1.daumcdn.net%2Flocal%2FkakaomapPhoto%2Freview%2F198b0cfb3237d169fffc8c3a79864ecbf4c27980%138Foriginal,8,4,19243865
워시엔조이 도봉방학점,서울 도봉구 방학동 687,서울 도봉구 도봉로145길 55,127.0393909,37.66452995,,https://img1.kakaocdn.net/relay/local/R680x420/?fname=http%3A%2F%2Ft1.daumcdn.net%2Flocal%2FkakaomapPhoto%2Freview%2F198b0cfb3237d169fffc8c3a79864ecbf4c27980%139Foriginal,7,4,868560383
크린토피아 코인워시 방학동도깨비시장점,서울 도봉구 방학동 634-34,서울 도봉구 도당로15길 27,127.0359657,37.66658708,02-955-3329,https://img1.kakaocdn.net/relay/local/R680x420/?fname=http%3A%2F%2Ft1.daumcdn.net%2Flocal%2FkakaomapPhoto%2Freview%2F198b0cfb3237d169fffc8c3a79864ecbf4c27980%140Foriginal,8,3,1515354095
더런드리 쌍문점,서울 도봉구 쌍문동 143-7,서울 도봉구 노해로 234,127.0341179,37.6510475,010-9541-9555,https://img1.kakaocdn.net/relay/local/R680x420/?fname=http%3A%2F%2Ft1.daumcdn.net%2Flocal%2FkakaomapPhoto%2Freview%2F198b0cfb3237d169fffc8c3a79864ecbf4c27980%141Foriginal,7,5,433967485
크린토피아 코인워시365 서울과기대점,서울 노원구 하계동 162,서울 노원구 공릉로58길 79,127.072903,37.63563749,,https://img1.kakaocdn.net/relay/local/R680x420/?fname=http%3A%2F%2Ft1.daumcdn.net%2Flocal%2FkakaomapPhoto%2Freview%2F198b0cfb3237d169fffc8c3a79864ecbf4c27980%142Foriginal,4,5,2091072251
크린토피아 코인워시 공릉2동점,서울 노원구 공릉동 408-125,서울 노원구 공릉로43길 18,127.0785169,37.62611588,02-971-2210,https://img1.kakaocdn.net/relay/local/R680x420/?fname=http%3A%2F%2Ft1.daumcdn.net%2Flocal%2FkakaomapPhoto%2Freview%2F198b0cfb3237d169fffc8c3a79864ecbf4c27980%143Foriginal,7,3,470978778
크린토피아 코인워시 태릉입구역점,서울 노원구 공릉동 584-23,서울 노원구 동일로178길 29-3,127.0761752,37.62148273,02-948-0011,https://img1.kakaocdn.net/relay/local/R680x420/?fname=http%3A%2F%2Ft1.daumcdn.net%2Flocal%2FkakaomapPhoto%2Freview%2F198b0cfb3237d169fffc8c3a79864ecbf4c27980%144Foriginal,8,3,25701108
크린업24 노원중계점,서울 노원구 중계동 503,서울 노원구 동일로207길 23,127.0632293,37.64297168,,https://img1.kakaocdn.net/relay/local/R680x420/?fname=http%3A%2F%2Ft1.daumcdn.net%2Flocal%2FkakaomapPhoto%2Freview%2F198b0cfb3237d169fffc8c3a79864ecbf4c27980%145Foriginal,3,3,1716129444
더런드리 노원중계점,서울 노원구 중계동 93-18,서울 노원구 중계로14길 41,127.0824767,37.65027038,010-9844-9757,https://img1.kakaocdn.net/relay/local/R680x420/?fname=http%3A%2F%2Ft1.daumcdn.net%2Flocal%2FkakaomapPhoto%2Freview%2F198b0cfb3237d169fffc8c3a79864ecbf4c27980%146Foriginal,7,5,1939270092
워시엔조이 노원상계점,서울 노원구 상계동 184-20,서울 노원구 노원로28길 67,127.0707504,37.65480092,,https://img1.kakaocdn.net/relay/local/R680x420/?fname=http%3A%2F%2Ft1.daumcdn.net%2Flocal%2FkakaomapPhoto%2Freview%2F198b0cfb3237d169fffc8c3a79864ecbf4c27980%147Foriginal,3,3,1371643936
크린토피아 코인워시 상계7단지점,서울 노원구 상계동 581-51,서울 노원구 상계로1길 62-40,127.0623225,37.65883487,02-939-2202,https://img1.kakaocdn.net/relay/local/R680x420/?fname=http%3A%2F%2Ft1.daumcdn.net%2Flocal%2FkakaomapPhoto%2Freview%2F198b0cfb3237d169fffc8c3a79864ecbf4c27980%148Foriginal,10,3,442307959
크린토피아 코인워시365 노원인덕대점,서울 노원구 월계동 274-50,서울 노원구 초안산로2라길 23,127.0578133,37.63137518,010-4785-8422,https://img1.kakaocdn.net/relay/local/R680x420/?fname=http%3A%2F%2Ft1.daumcdn.net%2Flocal%2FkakaomapPhoto%2Freview%2F198b0cfb3237d169fffc8c3a79864ecbf4c27980%149Foriginal,5,6,1408878273
크린업24 상계점,서울 노원구 상계동 140-226,서울 노원구 한글비석로24길 77,127.0738915,37.6637079,,https://img1.kakaocdn.net/relay/local/R680x420/?fname=http%3A%2F%2Ft1.daumcdn.net%2Flocal%2FkakaomapPhoto%2Freview%2F198b0cfb3237d169fffc8c3a79864ecbf4c27980%150Foriginal,6,3,1177398710
크린토피아 코인워시 마들점,서울 노원구 상계동 649,서울 노원구 동일로 1538,127.0578256,37.66623602,02-930-1688,https://img1.kakaocdn.net/relay/local/R680x420/?fname=http%3A%2F%2Ft1.daumcdn.net%2Flocal%2FkakaomapPhoto%2Freview%2F198b0cfb3237d169fffc8c3a79864ecbf4c27980%151Foriginal,10,5,13077326
크린토피아 코인워시 노원상계푸르지오점,서울 노원구 상계동 140-147,서울 노원구 수락산로 17-1,127.0739331,37.66452957,02-3391-8200,https://img1.kakaocdn.net/relay/local/R680x420/?fname=http%3A%2F%2Ft1.daumcdn.net%2Flocal%2FkakaomapPhoto%2Freview%2F198b0cfb3237d169fffc8c3a79864ecbf4c27980%152Foriginal,5,4,1412490676
크린토피아 코인워시 수락파르코점,서울 노원구 상계동 1267,서울 노원구 동일로 1700,127.0557609,37.68033554,02-931-8284,https://img1.kakaocdn.net/relay/local/R680x420/?fname=http%3A%2F%2Ft1.daumcdn.net%2Flocal%2FkakaomapPhoto%2Freview%2F198b0cfb3237d169fffc8c3a79864ecbf4c27980%153Foriginal,10,5,13077263
화이트365 상계점,서울 노원구 상계동 177-79,서울 노원구 상계로12길 18,127.0685903,37.65704024,,https://img1.kakaocdn.net/relay/local/R680x420/?fname=http%3A%2F%2Ft1.daumcdn.net%2Flocal%2FkakaomapPhoto%2Freview%2F198b0cfb3237d169fffc8c3a79864ecbf4c27980%154Foriginal,5,4,1949585656
크린토피아 코인워시 노원초교점,서울 노원구 상계동 1019-22,서울 노원구 동일로232길 11,127.0565147,37.67279849,02-956-8284,https://img1.kakaocdn.net/relay/local/R680x420/?fname=http%3A%2F%2Ft1.daumcdn.net%2Flocal%2FkakaomapPhoto%2Freview%2F198b0cfb3237d169fffc8c3a79864ecbf4c27980%155Foriginal,10,5,1658002405
크린토피아 코인워시365 상계주공11단지점,서울 노원구 상계동 652-1,서울 노원구 동일로227길 43,127.0545404,37.66694035,,https://img1.kakaocdn.net/relay/local/R680x420/?fname=http%3A%2F%2Ft1.daumcdn.net%2Flocal%2FkakaomapPhoto%2Freview%2F198b0cfb3237d169fffc8c3a79864ecbf4c27980%156Foriginal,6,5,13077264
크린토피아 코인워시 응암점,서울 은평구 응암동 124-29,서울 은평구 응암로21가길 12,126.9173989,37.59477669,02-382-7777,https://img1.kakaocdn.net/relay/local/R680x420/?fname=http%3A%2F%2Ft1.daumcdn.net%2Flocal%2FkakaomapPhoto%2Freview%2F198b0cfb3237d169fffc8c3a79864ecbf4c27980%157Foriginal,10,3,22482933
화이트365 은평갈현점,서울 은평구 갈현동 419-8,서울 은평구 갈현로 326,126.9180989,37.62554055,,https://img1.kakaocdn.net/relay/local/R680x420/?fname=http%3A%2F%2Ft1.daumcdn.net%2Flocal%2FkakaomapPhoto%2Freview%2F198b0cfb3237d169fffc8c3a79864ecbf4c27980%158Foriginal,7,6,2032764045
화이트365 은평역촌점,서울 은평구 역촌동 24-23,서울 은평구 진흥로1길 48,126.9184706,37.60461265,,https://img1.kakaocdn.net/relay/local/R680x420/?fname=http%3A%2F%2Ft1.daumcdn.net%2Flocal%2FkakaomapPhoto%2Freview%2F198b0cfb3237d169fffc8c3a79864ecbf4c27980%159Foriginal,10,6,2058100520
크린토피아 코인워시 은평녹번이편한세상캐슬점,서울 은평구 응암동 53-11,서울 은평구 은평로 220,126.9316424,37.5997908,02-353-8777,https://img1.kakaocdn.net/relay/local/R680x420/?fname=http%3A%2F%2Ft1.daumcdn.net%2Flocal%2FkakaomapPhoto%2Freview%2F198b0cfb3237d169fffc8c3a79864ecbf4c27980%160Foriginal,4,3,1128285378
워시엔조이 은평신사점,서울 은평구 신사동 15-3,서울 은평구 갈현로1길 6-3,126.9094623,37.5995317,,https://img1.kakaocdn.net/relay/local/R680x420/?fname=http%3A%2F%2Ft1.daumcdn.net%2Flocal%2FkakaomapPhoto%2Freview%2F198b0cfb3237d169fffc8c3a79864ecbf4c27980%161Foriginal,3,5,1652010844
크린업24 은평구산점,서울 은평구 구산동 27-41,서울 은평구 갈현로15길 8,126.9098103,37.60769854,,https://img1.kakaocdn.net/relay/local/R680x420/?fname=http%3A%2F%2Ft1.daumcdn.net%2Flocal%2FkakaomapPhoto%2Freview%2F198b0cfb3237d169fffc8c3a79864ecbf4c27980%162Foriginal,3,6,20806914
더런드리 응암점,서울 은평구 응암동 104-42,서울 은평구 응암로 294,126.9206207,37.59767649,02-305-4114,https://img1.kakaocdn.net/relay/local/R680x420/?fname=http%3A%2F%2Ft1.daumcdn.net%2Flocal%2FkakaomapPhoto%2Freview%2F198b0cfb3237d169fffc8c3a79864ecbf4c27980%163Foriginal,4,3,253959698
크린토피아 코인워시 수색롯데캐슬점,서울 은평구 수색동 331-11,,126.8922858,37.58397697,02-373-6489,https://img1.kakaocdn.net/relay/local/R680x420/?fname=http%3A%2F%2Ft1.daumcdn.net%2Flocal%2FkakaomapPhoto%2Freview%2F198b0cfb3237d169fffc8c3a79864ecbf4c27980%164Foriginal,5,6,1373063405
워시엔조이 은평응암점,서울 은평구 응암동 335-26,서울 은평구 응암로14길 19-1,126.9195147,37.58994163,,https://img1.kakaocdn.net/relay/local/R680x420/?fname=http%3A%2F%2Ft1.daumcdn.net%2Flocal%2FkakaomapPhoto%2Freview%2F198b0cfb3237d169fffc8c3a79864ecbf4c27980%165Foriginal,5,5,1687760042
크린업24 응암역점,서울 은평구 응암동 111-61,서울 은평구 은평로 88,126.917694,37.59927735,,https://img1.kakaocdn.net/relay/local/R680x420/?fname=http%3A%2F%2Ft1.daumcdn.net%2Flocal%2FkakaomapPhoto%2Freview%2F198b0cfb3237d169fffc8c3a79864ecbf4c27980%166Foriginal,4,3,78829576
워시엔조이 역촌점,서울 은평구 역촌동 63-7,서울 은평구 연서로3가길 14,126.9148661,37.60350729,,https://img1.kakaocdn.net/relay/local/R680x420/?fname=http%3A%2F%2Ft1.daumcdn.net%2Flocal%2FkakaomapPhoto%2Freview%2F198b0cfb3237d169fffc8c3a79864ecbf4c27980%167Foriginal,4,6,27404695
크린업24 은평응암점,서울 은평구 역촌동 83-17,서울 은평구 연서로 31,126.9156334,37.60199058,,https://img1.kakaocdn.net/relay/local/R680x420/?fname=http%3A%2F%2Ft1.daumcdn.net%2Flocal%2FkakaomapPhoto%2Freview%2F198b0cfb3237d169fffc8c3a79864ecbf4c27980%168Foriginal,4,4,17382430
크린업24 진관점,서울 은평구 진관동 34-9,서울 은평구 진관4로 17,126.9215996,37.64464742,,https://img1.kakaocdn.net/relay/local/R680x420/?fname=http%3A%2F%2Ft1.daumcdn.net%2Flocal%2FkakaomapPhoto%2Freview%2F198b0cfb3237d169fffc8c3a79864ecbf4c27980%169Foriginal,9,5,1651544536
크린토피아 코인워시 은평갈현동점,서울 은평구 갈현동 513-10,서울 은평구 갈현로25길 15-9,126.9128854,37.61708375,010-5023-7828,https://img1.kakaocdn.net/relay/local/R680x420/?fname=http%3A%2F%2Ft1.daumcdn.net%2Flocal%2FkakaomapPhoto%2Freview%2F198b0cfb3237d169fffc8c3a79864ecbf4c27980%170Foriginal,6,5,184705807
크린토피아 코인워시365 은평성모병원점,서울 은평구 진관동 93-11,서울 은평구 통일로 1021,126.9161505,37.63360841,010-5326-3889,https://img1.kakaocdn.net/relay/local/R680x420/?fname=http%3A%2F%2Ft1.daumcdn.net%2Flocal%2FkakaomapPhoto%2Freview%2F198b0cfb3237d169fffc8c3a79864ecbf4c27980%171Foriginal,9,4,38688338
화이트365 신촌점,서울 서대문구 창천동 5-78,서울 서대문구 연세로4길 54,126.9394816,37.55828539,,https://img1.kakaocdn.net/relay/local/R680x420/?fname=http%3A%2F%2Ft1.daumcdn.net%2Flocal%2FkakaomapPhoto%2Freview%2F198b0cfb3237d169fffc8c3a79864ecbf4c27980%172Foriginal,5,4,1641785881
크린토피아 코인워시365 남가좌래미안1차점,서울 서대문구 북가좌동 286-18,서울 서대문구 증가로 201,126.9159978,37.58000303,070-4226-0022,https://img1.kakaocdn.net/relay/local/R680x420/?fname=http%3A%2F%2Ft1.daumcdn.net%2Flocal%2FkakaomapPhoto%2Freview%2F198b0cfb3237d169fffc8c3a79864ecbf4c27980%173Foriginal,6,5,2058255120
크린토피아 코인워시 남가좌현대점,서울 서대문구 남가좌동 190-60,서울 서대문구 가재울로 69,126.9208248,37.57601316,02-6052-8787,https://img1.kakaocdn.net/relay/local/R680x420/?fname=http%3A%2F%2Ft1.daumcdn.net%2Flocal%2FkakaomapPhoto%2Freview%2F198b0cfb3237d169fffc8c3a79864ecbf4c27980%174Foriginal,10,3,569902426
크린토피아 코인워시365 롯데수퍼홍제점,서울 서대문구 홍제동 469,서울 서대문구 통일로 397,126.9473988,37.58516767,,https://img1.kakaocdn.net/relay/local/R680x420/?fname=http%3A%2F%2Ft1.daumcdn.net%2Flocal%2FkakaomapPhoto%2Freview%2F198b0cfb3237d169fffc8c3a79864ecbf4c27980%175Foriginal,4,4,1408008307
워시앤조이 연희점,서울 서대문구 연희동 121-16,서울 서대문구 증가로 23,126.9305385,37.57027093,,https://img1.kakaocdn.net/relay/local/R680x420/?fname=http%3A%2F%2Ft1.daumcdn.net%2Flocal%2FkakaomapPhoto%2Freview%2F198b0cfb3237d169fffc8c3a79864ecbf4c27980%176Foriginal,10,3,1865675162
화이트365 명지대점,서울 서대문구 남가좌동 325-60,서울 서대문구 증가로10길 60-22,126.9253091,37.57914433,,https://img1.kakaocdn.net/relay/local/R680x420/?fname=http%3A%2F%2Ft1.daumcdn.net%2Flocal%2FkakaomapPhoto%2Freview%2F198b0cfb3237d169fffc8c3a79864ecbf4c27980%177Foriginal,9,3,104451671
크린토피아 코인워시 북아현이편한세상신촌점,서울 서대문구 북아현동 220-2,서울 서대문구 신촌로29길 26,126.9529592,37.55767525,02-393-8233,https://img1.kakaocdn.net/relay/local/R680x420/?fname=http%3A%2F%2Ft1.daumcdn.net%2Flocal%2FkakaomapPhoto%2Freview%2F198b0cfb3237d169fffc8c3a79864ecbf4c27980%178Foriginal,8,5,1573692676
크린토피아 코인워시 남가좌파크뷰자이점,서울 서대문구 남가좌동 384,서울 서대문구 가재울미래로 2,126.9168203,37.57442556,02-373-3302,https://img1.kakaocdn.net/relay/local/R680x420/?fname=http%3A%2F%2Ft1.daumcdn.net%2Flocal%2FkakaomapPhoto%2Freview%2F198b0cfb3237d169fffc8c3a79864ecbf4c27980%179Foriginal,10,3,915549254
화이트365 서대문역점,서울 서대문구 냉천동 261-2,서울 서대문구 독립문로14길 3,126.9638843,37.56687737,,https://img1.kakaocdn.net/relay/local/R680x420/?fname=http%3A%2F%2Ft1.daumcdn.net%2Flocal%2FkakaomapPhoto%2Freview%2F198b0cfb3237d169fffc8c3a79864ecbf4c27980%180Foriginal,3,5,40677878
워시엔조이 홍대역점,서울 서대문구 창천동 510-14,서울 서대문구 신촌로1길 15,126.9284212,37.55906488,,https://img1.kakaocdn.net/relay/local/R680x420/?fname=http%3A%2F%2Ft1.daumcdn.net%2Flocal%2FkakaomapPhoto%2Freview%2F198b0cfb3237d169fffc8c3a79864ecbf4c27980%181Foriginal,7,3,1211386820
더런드리 DMC점,서울 서대문구 남가좌동 387,서울 서대문구 모래내로 151,126.9178339,37.56990237,02-302-8272,https://img1.kakaocdn.net/relay/local/R680x420/?fname=http%3A%2F%2Ft1.daumcdn.net%2Flocal%2FkakaomapPhoto%2Freview%2F198b0cfb3237d169fffc8c3a79864ecbf4c27980%182Foriginal,3,4,764497165
크린업24 북가좌점,서울 서대문구 북가좌동 335-19,서울 서대문구 응암로 143-12,126.9144071,37.58506547,,https://img1.kakaocdn.net/relay/local/R680x420/?fname=http%3A%2F%2Ft1.daumcdn.net%2Flocal%2FkakaomapPhoto%2Freview%2F198b0cfb3237d169fffc8c3a79864ecbf4c27980%183Foriginal,7,3,602334219
아쿠아워시셀프빨래방 홍제점,서울 서대문구 홍제동 266-66,서울 서대문구 세무서9길 15,126.9462618,37.59182549,010-2222-8249,https://img1.kakaocdn.net/relay/local/R680x420/?fname=http%3A%2F%2Ft1.daumcdn.net%2Flocal%2FkakaomapPhoto%2Freview%2F198b0cfb3237d169fffc8c3a79864ecbf4c27980%184Foriginal,3,4,1381189136
코인워시 24빨래터 명지대점,서울 서대문구 홍은동 421-15,서울 서대문구 명지대길 28,126.9248175,37.58162355,02-308-5989,https://img1.kakaocdn.net/relay/local/R680x420/?fname=http%3A%2F%2Ft1.daumcdn.net%2Flocal%2FkakaomapPhoto%2Freview%2F198b0cfb3237d169fffc8c3a79864ecbf4c27980%185Foriginal,8,5,10821332
펭귄하우스 이대1호점,서울 서대문구 대현동 37-32,서울 서대문구 이화여대5길 35,126.9438956,37.55821279,1544-4335,https://img1.kakaocdn.net/relay/local/R680x420/?fname=http%3A%2F%2Ft1.daumcdn.net%2Flocal%2FkakaomapPhoto%2Freview%2F198b0cfb3237d169fffc8c3a79864ecbf4c27980%186Foriginal,8,5,590491213
크린토피아 코인워시 마포염리자이점,서울 마포구 염리동 173-3,서울 마포구 독막로42길 7,126.9462242,37.54340056,02-715-8484,https://img1.kakaocdn.net/relay/local/R680x420/?fname=http%3A%2F%2Ft1.daumcdn.net%2Flocal%2FkakaomapPhoto%2Freview%2F198b0cfb3237d169fffc8c3a79864ecbf4c27980%187Foriginal,3,3,13077404
크린토피아 코인워시365 대흥역점,서울 마포구 대흥동 330-2,서울 마포구 독막로38길 22,126.9410082,37.5455857,02-704-8430,https://img1.kakaocdn.net/relay/local/R680x420/?fname=http%3A%2F%2Ft1.daumcdn.net%2Flocal%2FkakaomapPhoto%2Freview%2F198b0cfb3237d169fffc8c3a79864ecbf4c27980%188Foriginal,3,5,201546626
크린토피아 코인워시 마포구청역점,서울 마포구 성산동 261-28,서울 마포구 성미산로1길 66,126.9068654,37.56070047,02-333-2700,https://img1.kakaocdn.net/relay/local/R680x420/?fname=http%3A%2F%2Ft1.daumcdn.net%2Flocal%2FkakaomapPhoto%2Freview%2F198b0cfb3237d169fffc8c3a79864ecbf4c27980%189Foriginal,4,5,1842168274
크린토피아 코인워시 만리한겨레점,서울 마포구 공덕동 11-180,서울 마포구 효창목길 23,126.9606785,37.54789684,02-714-0205,https://img1.kakaocdn.net/relay/local/R680x420/?fname=http%3A%2F%2Ft1.daumcdn.net%2Flocal%2FkakaomapPhoto%2Freview%2F198b0cfb3237d169fffc8c3a79864ecbf4c27980%190Foriginal,7,4,1182028695
워시엔조이 마포연남점,서울 마포구 연남동 562-23,서울 마포구 연남로5길 43,126.9199125,37.56105962,010-8203-2489,https://img1.kakaocdn.net/relay/local/R680x420/?fname=http%3A%2F%2Ft1.daumcdn.net%2Flocal%2FkakaomapPhoto%2Freview%2F198b0cfb3237d169fffc8c3a79864ecbf4c27980%191Foriginal,4,5,1906545678
크린토피아 코인워시 마포아현초교점,서울 마포구 아현동 326-24,서울 마포구 신촌로34길 29,126.9548073,37.55590641,02-364-1272,https://img1.kakaocdn.net/relay/local/R680x420/?fname=http%3A%2F%2Ft1.daumcdn.net%2Flocal%2FkakaomapPhoto%2Freview%2F198b0cfb3237d169fffc8c3a79864ecbf4c27980%192Foriginal,6,4,1284590955
워시엔조이 마포용강점,서울 마포구 용강동 494-94,서울 마포구 대흥로4길 17,126.9382409,37.54221455,,https://img1.kakaocdn.net/relay/local/R680x420/?fname=http%3A%2F%2Ft1.daumcdn.net%2Flocal%2FkakaomapPhoto%2Freview%2F198b0cfb3237d169fffc8c3a79864ecbf4c27980%193Foriginal,6,5,1953990500
화이트365 홍대입구점,서울 마포구 동교동 158-6,서울 마포구 월드컵북로2길 37,126.9227305,37.55693944,,https://img1.kakaocdn.net/relay/local/R680x420/?fname=http%3A%2F%2Ft1.daumcdn.net%2Flocal%2FkakaomapPhoto%2Freview%2F198b0cfb3237d169fffc8c3a79864ecbf4c27980%194Foriginal,10,4,1122286299
크린토피아 코인워시 마포보건소점,서울 마포구 성산동 590-2,서울 마포구 월드컵로36길 18,126.9033518,37.5662667,02-6953-1479,https://img1.kakaocdn.net/relay/local/R680x420/?fname=http%3A%2F%2Ft1.daumcdn.net%2Flocal%2FkakaomapPhoto%2Freview%2F198b0cfb3237d169fffc8c3a79864ecbf4c27980%195Foriginal,8,6,935573414
크린토피아 코인워시 마포서교점,서울 마포구 서교동 469-28,서울 마포구 월드컵로14길 61,126.9137331,37.55685302,02-325-8272,https://img1.kakaocdn.net/relay/local/R680x420/?fname=http%3A%2F%2Ft1.daumcdn.net%2Flocal%2FkakaomapPhoto%2Freview%2F198b0cfb3237d169fffc8c3a79864ecbf4c27980%196Foriginal,4,4,17932193
워시엔조이 마포합정점,서울 마포구 망원동 384-45,서울 마포구 동교로 55,126.908382,37.5533315,,https://img1.kakaocdn.net/relay/local/R680x420/?fname=http%3A%2F%2Ft1.daumcdn.net%2Flocal%2FkakaomapPhoto%2Freview%2F198b0cfb3237d169fffc8c3a79864ecbf4c27980%197Foriginal,7,3,1560458940
크린토피아 코인워시 합정역점,서울 마포구 합정동 370-26,서울 마포구 성지길 49,126.9130661,37.54650547,02-336-1998,https://img1.kakaocdn.net/relay/local/R680x420/?fname=http%3A%2F%2Ft1.daumcdn.net%2Flocal%2FkakaomapPhoto%2Freview%2F198b0cfb3237d169fffc8c3a79864ecbf4c27980%198Foriginal,3,6,1466693963
크린토피아 코인워시 상암DMC점,서울 마포구 상암동 41-16,서울 마포구 월드컵북로 350,126.8933421,37.57682405,02-6404-8289,https://img1.kakaocdn.net/relay/local/R680x420/?fname=http%3A%2F%2Ft1.daumcdn.net%2Flocal%2FkakaomapPhoto%2Freview%2F198b0cfb3237d169fffc8c3a79864ecbf4c27980%199Foriginal,10,4,12578975
크린토피아 코인워시 성산시장점,서울 마포구 망원동 517,서울 마포구 월드컵로25길 26,126.9064739,37.55877202,02-333-1163,https://img1.kakaocdn.net/relay/local/R680x420/?fname=http%3A%2F%2Ft1.daumcdn.net%2Flocal%2FkakaomapPhoto%2Freview%2F198b0cfb3237d169fffc8c3a79864ecbf4c27980%200Foriginal,10,5,17722197
크린토피아 코인워시 마포애오개역점,서울 마포구 아현동 733,서울 마포구 마포대로 208,126.956851,37.55251222,02-363-8432,https://img1.kakaocdn.net/relay/local/R680x420/?fname=http%3A%2F%2Ft1.daumcdn.net%2Flocal%2FkakaomapPhoto%2Freview%2F198b0cfb3237d169fffc8c3a79864ecbf4c27980%201Foriginal,8,5,579830052
워시엔조이 오목교역점,서울 양천구 목동 405-33,서울 양천구 오목로54길 14,126.8730286,37.52342162,,https://img1.kakaocdn.net/relay/local/R680x420/?fname=http%3A%2F%2Ft1.daumcdn.net%2Flocal%2FkakaomapPhoto%2Freview%2F198b0cfb3237d169fffc8c3a79864ecbf4c27980%202Foriginal,8,3,53899485
크린토피아 코인워시 목2동주민센터점,서울 양천구 목동 555-2,서울 양천구 목동중앙본로 88-1,126.8703965,37.54351468,02-2644-8579,https://img1.kakaocdn.net/relay/local/R680x420/?fname=http%3A%2F%2Ft1.daumcdn.net%2Flocal%2FkakaomapPhoto%2Freview%2F198b0cfb3237d169fffc8c3a79864ecbf4c27980%203Foriginal,8,5,16907243
크린업24 목동점,서울 양천구 신정동 888-8,서울 양천구 신정중앙로21길 10,126.8622389,37.52703516,010-7929-3378,https://img1.kakaocdn.net/relay/local/R680x420/?fname=http%3A%2F%2Ft1.daumcdn.net%2Flocal%2FkakaomapPhoto%2Freview%2F198b0cfb3237d169fffc8c3a79864ecbf4c27980%204Foriginal,5,5,459255760
크린토피아 코인워시365 신정대림아크로빌점,서울 양천구 신정동 324-8,서울 양천구 목동서로 397,126.8601062,37.51560074,,https://img1.kakaocdn.net/relay/local/R680x420/?fname=http%3A%2F%2Ft1.daumcdn.net%2Flocal%2FkakaomapPhoto%2Freview%2F198b0cfb3237d169fffc8c3a79864ecbf4c27980%205Foriginal,10,4,1286012765
워시엔조이 신정네거리점,서울 양천구 신정동 969-18,서울 양천구 중앙로46길 7,126.8529581,37.52220181,,https://img1.kakaocdn.net/relay/local/R680x420/?fname=http%3A%2F%2Ft1.daumcdn.net%2Flocal%2FkakaomapPhoto%2Freview%2F198b0cfb3237d169fffc8c3a79864ecbf4c27980%206Foriginal,3,3,539509679
화이트365 신월점,서울 양천구 신월동 575-18,서울 양천구 남부순환로79길 41,126.8435631,37.51847761,,https://img1.kakaocdn.net/relay/local/R680x420/?fname=http%3A%2F%2Ft1.daumcdn.net%2Flocal%2FkakaomapPhoto%2Freview%2F198b0cfb3237d169fffc8c3a79864ecbf4c27980%207Foriginal,8,6,970655130
크린토피아 코인워시 목동강서고교점,서울 양천구 목동 772-4,서울 양천구 목동중앙남로 7,126.8691121,37.53512315,02-2649-1992,https://img1.kakaocdn.net/relay/local/R680x420/?fname=http%3A%2F%2Ft1.daumcdn.net%2Flocal%2FkakaomapPhoto%2Freview%2F198b0cfb3237d169fffc8c3a79864ecbf4c27980%208Foriginal,6,6,26314344
크린토피아 코인워시 목사랑점,서울 양천구 목동 725-5,서울 양천구 목동중앙남로9길 32,126.8646761,37.53806262,02-2652-3377,https://img1.kakaocdn.net/relay/local/R680x420/?fname=http%3A%2F%2Ft1.daumcdn.net%2Flocal%2FkakaomapPhoto%2Freview%2F198b0cfb3237d169fffc8c3a79864ecbf4c27980%209Foriginal,3,6,1857463883
크린토피아 코인워시 목3동주민센터점,서울 양천구 목동 646-12,서울 양천구 목동중앙북로8길 64,126.8649607,37.54583307,02-2646-6959,https://img1.kakaocdn.net/relay/local/R680x420/?fname=http%3A%2F%2Ft1.daumcdn.net%2Flocal%2FkakaomapPhoto%2Freview%2F198b0cfb3237d169fffc8c3a79864ecbf4c27980%210Foriginal,4,3,1907732746
워시테리아 신월점,서울 양천구 신월동 19-3,서울 양천구 월정로50길 18-1,126.8321315,37.54165727,,https://img1.kakaocdn.net/relay/local/R680x420/?fname=http%3A%2F%2Ft1.daumcdn.net%2Flocal%2FkakaomapPhoto%2Freview%2F198b0cfb3237d169fffc8c3a79864ecbf4c27980%211Foriginal,5,3,1662911906
크린토피아 코인워시 신월4점,서울 양천구 신월동 513-5,서울 양천구 월정로 14,126.843856,37.52123506,02-2695-1427,https://img1.kakaocdn.net/relay/local/R680x420/?fname=http%3A%2F%2Ft1.daumcdn.net%2Flocal%2FkakaomapPhoto%2Freview%2F198b0cfb3237d169fffc8c3a79864ecbf4c27980%212Foriginal,8,5,17722333
크린토피아 코인워시 목동시장점,서울 양천구 목동 718-2,서울 양천구 목동중앙남로 72,126.8657543,37.54001722,02-2653-3191,https://img1.kakaocdn.net/relay/local/R680x420/?fname=http%3A%2F%2Ft1.daumcdn.net%2Flocal%2FkakaomapPhoto%2Freview%2F198b0cfb3237d169fffc8c3a79864ecbf4c27980%213Foriginal,10,5,19108427
워시테리아 목동점,서울 양천구 목동 751-3,서울 양천구 목동중앙본로 24,126.8703817,37.53894479,,https://img1.kakaocdn.net/relay/local/R680x420/?fname=http%3A%2F%2Ft1.daumcdn.net%2Flocal%2FkakaomapPhoto%2Freview%2F198b0cfb3237d169fffc8c3a79864ecbf4c27980%214Foriginal,4,6,59773261
워시테리아 신정점,서울 양천구 신정동 1050-5,서울 양천구 중앙로36길 8,126.8548008,37.5193353,,https://img1.kakaocdn.net/relay/local/R680x420/?fname=http%3A%2F%2Ft1.daumcdn.net%2Flocal%2FkakaomapPhoto%2Freview%2F198b0cfb3237d169fffc8c3a79864ecbf4c27980%215Foriginal,10,5,1057191091
더런드리 양천신정점,서울 양천구 신정동 129-14,서울 양천구 신목로2길 7-10,126.8751387,37.51847376,010-5189-8285,https://img1.kakaocdn.net/relay/local/R680x420/?fname=http%3A%2F%2Ft1.daumcdn.net%2Flocal%2FkakaomapPhoto%2Freview%2F198b0cfb3237d169fffc8c3a79864ecbf4c27980%216Foriginal,4,6,1743766723
크린토피아 코인워시 강서등촌주민센터점,서울 강서구 등촌동 641-12,서울 강서구 양천로60길 60,126.8576356,37.55617522,02-3661-4194,https://img1.kakaocdn.net/relay/local/R680x420/?fname=http%3A%2F%2Ft1.daumcdn.net%2Flocal%2FkakaomapPhoto%2Freview%2F198b0cfb3237d169fffc8c3a79864ecbf4c27980%217Foriginal,9,6,26792112
크린업24 마곡점,서울 강서구 마곡동 784-9,서울 강서구 강서로 433,126.8396595,37.56439809,010-2711-1112,https://img1.kakaocdn.net/relay/local/R680x420/?fname=http%3A%2F%2Ft1.daumcdn.net%2Flocal%2FkakaomapPhoto%2Freview%2F198b0cfb3237d169fffc8c3a79864ecbf4c27980%218Foriginal,10,3,2128329509
크린토피아 코인워시 화곡보람점,서울 강서구 화곡동 98-101,서울 강서구 까치산로4길 36,126.8450047,37.54120275,02-2692-7158,https://img1.kakaocdn.net/relay/local/R680x420/?fname=http%3A%2F%2Ft1.daumcdn.net%2Flocal%2FkakaomapPhoto%2Freview%2F198b0cfb3237d169fffc8c3a79864ecbf4c27980%219Foriginal,6,6,16797029
크린토피아 코인워시 화곡초록마을점,서울 강서구 화곡동 332-12,서울 강서구 초록마을로 157,126.8472813,37.5362304,02-6053-3119,https://img1.kakaocdn.net/relay/local/R680x420/?fname=http%3A%2F%2Ft1.daumcdn.net%2Flocal%2FkakaomapPhoto%2Freview%2F198b0cfb3237d169fffc8c3a79864ecbf4c27980%220Foriginal,7,6,1361580454
크린토피아 코인워시 마곡나루역점,서울 강서구 마곡동 282-1,서울 강서구 마곡중앙로 161-1,126.8274545,37.56786593,02-2063-3878,https://img1.kakaocdn.net/relay/local/R680x420/?fname=http%3A%2F%2Ft1.daumcdn.net%2Flocal%2FkakaomapPhoto%2Freview%2F198b0cfb3237d169fffc8c3a79864ecbf4c27980%221Foriginal,9,4,152731246
크린토피아 코인워시 강서송정역점,서울 강서구 공항동 53-62,서울 강서구 공항대로4길 23,126.8106492,37.56010594,02-2663-0380,https://img1.kakaocdn.net/relay/local/R680x420/?fname=http%3A%2F%2Ft1.daumcdn.net%2Flocal%2FkakaomapPhoto%2Freview%2F198b0cfb3237d169fffc8c3a79864ecbf4c27980%222Foriginal,9,4,1593198555
크린토피아 코인워시 강서마곡6단지점,서울 강서구 마곡동 743,서울 강서구 마곡서1로 100,126.8196222,37.56575311,02-2663-8610,https://img1.kakaocdn.net/relay/local/R680x420/?fname=http%3A%2F%2Ft1.daumcdn.net%2Flocal%2FkakaomapPhoto%2Freview%2F198b0cfb3237d169fffc8c3a79864ecbf4c27980%223Foriginal,8,4,25403888
워시엔조이 까치산역점,서울 강서구 화곡동 915-1,서울 강서구 강서로7길 65,126.8441606,37.52921834,,https://img1.kakaocdn.net/relay/local/R680x420/?fname=http%3A%2F%2Ft1.daumcdn.net%2Flocal%2FkakaomapPhoto%2Freview%2F198b0cfb3237d169fffc8c3a79864ecbf4c27980%224Foriginal,7,3,1902187654
크린토피아 코인워시 방화신안점,서울 강서구 방화동 553-30,서울 강서구 양천로14길 52,126.8094175,37.57089797,02-2661-7882,https://img1.kakaocdn.net/relay/local/R680x420/?fname=http%3A%2F%2Ft1.daumcdn.net%2Flocal%2FkakaomapPhoto%2Freview%2F198b0cfb3237d169fffc8c3a79864ecbf4c27980%225Foriginal,6,6,16536063
워시엔조이 화곡점,서울 강서구 화곡동 1049-5,서울 강서구 화곡로25길 35,126.8378683,37.54271405,,https://img1.kakaocdn.net/relay/local/R680x420/?fname=http%3A%2F%2Ft1.daumcdn.net%2Flocal%2FkakaomapPhoto%2Freview%2F198b0cfb3237d169fffc8c3a79864ecbf4c27980%226Foriginal,5,6,25599205
크린토피아 코인워시365 등촌진로아파트점,서울 강서구 등촌동 663-3,서울 강서구 화곡로63길 133,126.8455929,37.55881622,02-577-7871,https://img1.kakaocdn.net/relay/local/R680x420/?fname=http%3A%2F%2Ft1.daumcdn.net%2Flocal%2FkakaomapPhoto%2Freview%2F198b0cfb3237d169fffc8c3a79864ecbf4c27980%227Foriginal,7,4,1914758783
크린토피아 코인워시 화곡6동점,서울 강서구 화곡동 975-31,서울 강서구 화곡로50길 16,126.8486723,37.54940299,02-2695-3989,https://img1.kakaocdn.net/relay/local/R680x420/?fname=http%3A%2F%2Ft1.daumcdn.net%2Flocal%2FkakaomapPhoto%2Freview%2F198b0cfb3237d169fffc8c3a79864ecbf4c27980%228Foriginal,3,6,23737481
크린토피아 코인워시 강서마곡벨리오점,서울 강서구 마곡동 727-1229,서울 강서구 강서로 439,126.8398988,37.56468043,02-3663-9696,https://img1.kakaocdn.net/relay/local/R680x420/?fname=http%3A%2F%2Ft1.daumcdn.net%2Flocal%2FkakaomapPhoto%2Freview%2F198b0cfb3237d169fffc8c3a79864ecbf4c27980%229Foriginal,7,5,221210622
크린토피아 코인워시 마곡역점,서울 강서구 마곡동 727-1084,서울 강서구 마곡중앙6로 10,126.8282097,37.56038517,02-3664-0802,https://img1.kakaocdn.net/relay/local/R680x420/?fname=http%3A%2F%2Ft1.daumcdn.net%2Flocal%2FkakaomapPhoto%2Freview%2F198b0cfb3237d169fffc8c3a79864ecbf4c27980%230Foriginal,4,3,142500798
워시엔조이 등촌역점,서울 강서구 등촌동 646-39,서울 강서구 공항대로57길 27,126.8631242,37.55269665,,https://img1.kakaocdn.net/relay/local/R680x420/?fname=http%3A%2F%2Ft1.daumcdn.net%2Flocal%2FkakaomapPhoto%2Freview%2F198b0cfb3237d169fffc8c3a79864ecbf4c27980%231Foriginal,9,5,978306890
크린토피아 코인워시 구로5동점,서울 구로구 구로동 106-10,서울 구로구 가마산로27길 24,126.8916405,37.49795617,02-855-7111,https://img1.kakaocdn.net/relay/local/R680x420/?fname=http%3A%2F%2Ft1.daumcdn.net%2Flocal%2FkakaomapPhoto%2Freview%2F198b0cfb3237d169fffc8c3a79864ecbf4c27980%232Foriginal,8,4,27386297
워시테리아 남구로점,서울 구로구 구로동 797-47,서울 구로구 디지털로27길 86,126.8894439,37.48444984,,https://img1.kakaocdn.net/relay/local/R680x420/?fname=http%3A%2F%2Ft1.daumcdn.net%2Flocal%2FkakaomapPhoto%2Freview%2F198b0cfb3237d169fffc8c3a79864ecbf4c27980%233Foriginal,3,6,1224327678
화이트365 오류동점,서울 구로구 오류동 81-271,서울 구로구 경인로15나길 8,126.8381845,37.49586597,,https://img1.kakaocdn.net/relay/local/R680x420/?fname=http%3A%2F%2Ft1.daumcdn.net%2Flocal%2FkakaomapPhoto%2Freview%2F198b0cfb3237d169fffc8c3a79864ecbf4c27980%234Foriginal,3,5,1946575741
화이트365 신도림점,서울 구로구 구로동 40-11,서울 구로구 공원로8길 25,126.8907007,37.50342621,,https://img1.kakaocdn.net/relay/local/R680x420/?fname=http%3A%2F%2Ft1.daumcdn.net%2Flocal%2FkakaomapPhoto%2Freview%2F198b0cfb3237d169fffc8c3a79864ecbf4c27980%235Foriginal,3,3,483558888
크린토피아 코인워시 구로항동한양수자인점,서울 구로구 항동 158-1,서울 구로구 항동로 42,126.8245742,37.47780028,02-2066-9272,https://img1.kakaocdn.net/relay/local/R680x420/?fname=http%3A%2F%2Ft1.daumcdn.net%2Flocal%2FkakaomapPhoto%2Freview%2F198b0cfb3237d169fffc8c3a79864ecbf4c27980%236Foriginal,5,6,1296459361
크린토피아 코인워시365 오류삼거리점,서울 구로구 오류동 6-63,서울 구로구 고척로 5,126.8405448,37.49522406,010-2431-1203,https://img1.kakaocdn.net/relay/local/R680x420/?fname=http%3A%2F%2Ft1.daumcdn.net%2Flocal%2FkakaomapPhoto%2Freview%2F198b0cfb3237d169fffc8c3a79864ecbf4c27980%237Foriginal,5,6,1372832304
워시테리아 구로점,서울 구로구 구로동 111,서울 구로구 공원로7길 29,126.8877054,37.50155021,1577-8394,https://img1.kakaocdn.net/relay/local/R680x420/?fname=http%3A%2F%2Ft1.daumcdn.net%2Flocal%2FkakaomapPhoto%2Freview%2F198b0cfb3237d169fffc8c3a79864ecbf4c27980%238Foriginal,9,3,1035906918
크린토피아 코인워시 개봉한진아파트점,서울 구로구 개봉동 357-18,,126.8534037,37.48637842,02-2685-4500,https://img1.kakaocdn.net/relay/local/R680x420/?fname=http%3A%2F%2Ft1.daumcdn.net%2Flocal%2FkakaomapPhoto%2Freview%2F198b0cfb3237d169fffc8c3a79864ecbf4c27980%239Foriginal,8,5,2006976381
워시테리아 개봉점,서울 구로구 개봉동 306-29,서울 구로구 개봉로17라길 49,126.8534528,37.49367663,,https://img1.kakaocdn.net/relay/local/R680x420/?fname=http%3A%2F%2Ft1.daumcdn.net%2Flocal%2FkakaomapPhoto%2Freview%2F198b0cfb3237d169fffc8c3a79864ecbf4c27980%240Foriginal,9,4,1817233824
더런드리 신도림점,서울 구로구 신도림동 398-2,서울 구로구 신도림로 20,126.8785753,37.50651923,010-8876-6482,https://img1.kakaocdn.net/relay/local/R680x420/?fname=http%3A%2F%2Ft1.daumcdn.net%2Flocal%2FkakaomapPhoto%2Freview%2F198b0cfb3237d169fffc8c3a79864ecbf4c27980%241Foriginal,8,3,1660651315
워시엔조이 구로개봉점,서울 구로구 개봉동 109-17,서울 구로구 고척로27길 83,126.8457299,37.50552763,,https://img1.kakaocdn.net/relay/local/R680x420/?fname=http%3A%2F%2Ft1.daumcdn.net%2Flocal%2FkakaomapPhoto%2Freview%2F198b0cfb3237d169fffc8c3a79864ecbf4c27980%242Foriginal,4,3,60069552
크린업24 구로점,서울 구로구 구로동 792-26,서울 구로구 디지털로27라길 39-2,126.8890339,37.48646411,,https://img1.kakaocdn.net/relay/local/R680x420/?fname=http%3A%2F%2Ft1.daumcdn.net%2Flocal%2FkakaomapPhoto%2Freview%2F198b0cfb3237d169fffc8c3a79864ecbf4c27980%243Foriginal,7,3,1243011276
화이트365 개봉점,서울 구로구 개봉동 328-16,서울 구로구 개봉로15길 10,126.855459,37.49004985,,https://img1.kakaocdn.net/relay/local/R680x420/?fname=http%3A%2F%2Ft1.daumcdn.net%2Flocal%2FkakaomapPhoto%2Freview%2F198b0cfb3237d169fffc8c3a79864ecbf4c27980%244Foriginal,4,4,133061226
더런드리,서울 구로구 오류동 64-28,서울 구로구 경인로20가길 68,126.846646,37.49558533,010-4861-9807,https://img1.kakaocdn.net/relay/local/R680x420/?fname=http%3A%2F%2Ft1.daumcdn.net%2Flocal%2FkakaomapPhoto%2Freview%2F198b0cfb3237d169fffc8c3a79864ecbf4c27980%245Foriginal,5,4,2071857119
크린업24 오류동역점,서울 구로구 오류동 64-28,서울 구로구 경인로20가길 68,126.846646,37.49558533,,https://img1.kakaocdn.net/relay/local/R680x420/?fname=http%3A%2F%2Ft1.daumcdn.net%2Flocal%2FkakaomapPhoto%2Freview%2F198b0cfb3237d169fffc8c3a79864ecbf4c27980%246Foriginal,9,5,52613620
크린토피아 코인워시 가산동주민센터점,서울 금천구 가산동 143-20,서울 금천구 디지털로12길 37,126.8903002,37.47721734,070-8873-1717,https://img1.kakaocdn.net/relay/local/R680x420/?fname=http%3A%2F%2Ft1.daumcdn.net%2Flocal%2FkakaomapPhoto%2Freview%2F198b0cfb3237d169fffc8c3a79864ecbf4c27980%247Foriginal,8,3,1990897043
크린토피아 코인워시 금천롯데캐슬점,서울 금천구 독산동 1156,서울 금천구 시흥대로 315,126.896311,37.46109558,02-807-8585,https://img1.kakaocdn.net/relay/local/R680x420/?fname=http%3A%2F%2Ft1.daumcdn.net%2Flocal%2FkakaomapPhoto%2Freview%2F198b0cfb3237d169fffc8c3a79864ecbf4c27980%248Foriginal,10,6,883506073
크린토피아 코인워시365 독산제일점,서울 금천구 독산동 1016-22,서울 금천구 독산로73길 32,126.9000059,37.46797078,010-2057-3843,https://img1.kakaocdn.net/relay/local/R680x420/?fname=http%3A%2F%2Ft1.daumcdn.net%2Flocal%2FkakaomapPhoto%2Freview%2F198b0cfb3237d169fffc8c3a79864ecbf4c27980%249Foriginal,9,5,1278635710
워시엔조이 독산점,서울 금천구 독산동 148-12,서울 금천구 시흥대로145길 19,126.8954877,37.4736144,,https://img1.kakaocdn.net/relay/local/R680x420/?fname=http%3A%2F%2Ft1.daumcdn.net%2Flocal%2FkakaomapPhoto%2Freview%2F198b0cfb3237d169fffc8c3a79864ecbf4c27980%250Foriginal,10,5,1106498584
크린업24 독산점,서울 금천구 독산동 143-12,서울 금천구 시흥대로 487,126.8983318,37.47708396,,https://img1.kakaocdn.net/relay/local/R680x420/?fname=http%3A%2F%2Ft1.daumcdn.net%2Flocal%2FkakaomapPhoto%2Freview%2F198b0cfb3237d169fffc8c3a79864ecbf4c27980%251Foriginal,3,6,1307363748
크린토피아 코인워시365 남서울힐스테이트점,서울 금천구 시흥동 985-13,서울 금천구 시흥대로39길 11,126.9025495,37.44693607,,https://img1.kakaocdn.net/relay/local/R680x420/?fname=http%3A%2F%2Ft1.daumcdn.net%2Flocal%2FkakaomapPhoto%2Freview%2F198b0cfb3237d169fffc8c3a79864ecbf4c27980%252Foriginal,10,4,1069110883
현대셀프크리닝,서울 금천구 시흥동 842-10,서울 금천구 독산로 89,126.9056987,37.45529282,02-804-0255,https://img1.kakaocdn.net/relay/local/R680x420/?fname=http%3A%2F%2Ft1.daumcdn.net%2Flocal%2FkakaomapPhoto%2Freview%2F198b0cfb3237d169fffc8c3a79864ecbf4c27980%253Foriginal,6,5,11665645
월드크리닝 코인월드 독산점,서울 금천구 독산동 302-21,서울 금천구 가산로3길 65,126.8918812,37.47216954,,https://img1.kakaocdn.net/relay/local/R680x420/?fname=http%3A%2F%2Ft1.daumcdn.net%2Flocal%2FkakaomapPhoto%2Freview%2F198b0cfb3237d169fffc8c3a79864ecbf4c27980%254Foriginal,7,5,51286334
행복셀프빨래방,서울 금천구 시흥동 819-2,서울 금천구 독산로 96,126.9058924,37.45591287,,https://img1.kakaocdn.net/relay/local/R680x420/?fname=http%3A%2F%2Ft1.daumcdn.net%2Flocal%2FkakaomapPhoto%2Freview%2F198b0cfb3237d169fffc8c3a79864ecbf4c27980%255Foriginal,3,3,966519972
24시 셀프빨래방,서울 금천구 독산동 900-16,서울 금천구 독산로108길 63,126.9074948,37.47992427,,https://img1.kakaocdn.net/relay/local/R680x420/?fname=http%3A%2F%2Ft1.daumcdn.net%2Flocal%2FkakaomapPhoto%2Freview%2F198b0cfb3237d169fffc8c3a79864ecbf4c27980%256Foriginal,6,5,1517362928
힐링워시,서울 금천구 시흥동 220-73,서울 금천구 탑골로 17,126.9109177,37.45185319,,https://img1.kakaocdn.net/relay/local/R680x420/?fname=http%3A%2F%2Ft1.daumcdn.net%2Flocal%2FkakaomapPhoto%2Freview%2F198b0cfb3237d169fffc8c3a79864ecbf4c27980%257Foriginal,3,3,2014107794
워시피플 금천시흥동점,서울 금천구 시흥동 987,서울 금천구 시흥대로 179,126.9018314,37.44991242,,https://img1.kakaocdn.net/relay/local/R680x420/?fname=http%3A%2F%2Ft1.daumcdn.net%2Flocal%2FkakaomapPhoto%2Freview%2F198b0cfb3237d169fffc8c3a79864ecbf4c27980%258Foriginal,7,6,1972199800
빨래B,서울 금천구 독산동 953,서울 금천구 시흥대로152길 11-43,126.9005493,37.47841754,,https://img1.kakaocdn.net/relay/local/R680x420/?fname=http%3A%2F%2Ft1.daumcdn.net%2Flocal%2FkakaomapPhoto%2Freview%2F198b0cfb3237d169fffc8c3a79864ecbf4c27980%259Foriginal,7,4,458355165
워시업코리아,서울 금천구 가산동 543-1,서울 금천구 서부샛길 606,126.8770095,37.47995413,02-867-2657,https://img1.kakaocdn.net/relay/local/R680x420/?fname=http%3A%2F%2Ft1.daumcdn.net%2Flocal%2FkakaomapPhoto%2Freview%2F198b0cfb3237d169fffc8c3a79864ecbf4c27980%260Foriginal,8,4,1625634348
크리닝업 독산동점,서울 금천구 독산동 1140,서울 금천구 범안로 1136,126.8885226,37.46529351,02-868-0204,https://img1.kakaocdn.net/relay/local/R680x420/?fname=http%3A%2F%2Ft1.daumcdn.net%2Flocal%2FkakaomapPhoto%2Freview%2F198b0cfb3237d169fffc8c3a79864ecbf4c27980%261Foriginal,8,5,1179899309
크린토피아 코인워시 당산동4가점,서울 영등포구 당산동4가 32-35,서울 영등포구 당산로38길 5,126.8989854,37.52908695,02-2677-7279,https://img1.kakaocdn.net/relay/local/R680x420/?fname=http%3A%2F%2Ft1.daumcdn.net%2Flocal%2FkakaomapPhoto%2Freview%2F198b0cfb3237d169fffc8c3a79864ecbf4c27980%262Foriginal,8,5,499745050
크린토피아 코인워시 영등포아크로타워점,서울 영등포구 영등포동7가 204,서울 영등포구 국회대로54길 10,126.9062562,37.52389686,02-6409-9912,https://img1.kakaocdn.net/relay/local/R680x420/?fname=http%3A%2F%2Ft1.daumcdn.net%2Flocal%2FkakaomapPhoto%2Freview%2F198b0cfb3237d169fffc8c3a79864ecbf4c27980%263Foriginal,8,3,954904719
크린토피아 코인워시 영등포청원점,서울 영등포구 영등포동6가 131-2,서울 영등포구 영신로44길 8,126.9024065,37.52216292,02-3667-8808,https://img1.kakaocdn.net/relay/local/R680x420/?fname=http%3A%2F%2Ft1.daumcdn.net%2Flocal%2FkakaomapPhoto%2Freview%2F198b0cfb3237d169fffc8c3a79864ecbf4c27980%264Foriginal,5,4,26438899
크린토피아 코인워시 영등포양평역점,서울 영등포구 양평동3가 17-1,서울 영등포구 양산로7길 3,126.8871749,37.52565245,02-3667-8100,https://img1.kakaocdn.net/relay/local/R680x420/?fname=http%3A%2F%2Ft1.daumcdn.net%2Flocal%2FkakaomapPhoto%2Freview%2F198b0cfb3237d169fffc8c3a79864ecbf4c27980%265Foriginal,8,5,1237861634
크린토피아 코인워시 영등포8가점,서울 영등포구 영등포동8가 42-1,서울 영등포구 영신로 228-6,126.9040559,37.52736125,02-2636-8582,https://img1.kakaocdn.net/relay/local/R680x420/?fname=http%3A%2F%2Ft1.daumcdn.net%2Flocal%2FkakaomapPhoto%2Freview%2F198b0cfb3237d169fffc8c3a79864ecbf4c27980%266Foriginal,5,6,1912525219
크린토피아 코인워시 영등포신길보라매SK뷰점,서울 영등포구 신길동 522,,126.9183793,37.50151682,,https://img1.kakaocdn.net/relay/local/R680x420/?fname=http%3A%2F%2Ft1.daumcdn.net%2Flocal%2FkakaomapPhoto%2Freview%2F198b0cfb3237d169fffc8c3a79864ecbf4c27980%267Foriginal,9,6,1372902081
크린토피아 코인워시 신길센트럴자이점,서울 영등포구 신길동 337-214,서울 영등포구 신길로29길 17,126.9071395,37.50209777,02-848-2266,https://img1.kakaocdn.net/relay/local/R680x420/?fname=http%3A%2F%2Ft1.daumcdn.net%2Flocal%2FkakaomapPhoto%2Freview%2F198b0cfb3237d169fffc8c3a79864ecbf4c27980%268Foriginal,4,4,1731905749
크린토피아 코인워시 당산공원점,서울 영등포구 당산동3가 558-3,서울 영등포구 선유동1로 50,126.8932294,37.52652394,02-2637-7156,https://img1.kakaocdn.net/relay/local/R680x420/?fname=http%3A%2F%2Ft1.daumcdn.net%2Flocal%2FkakaomapPhoto%2Freview%2F198b0cfb3237d169fffc8c3a79864ecbf4c27980%269Foriginal,4,4,24061191
워시엔조이 구로디지털단지점,서울 영등포구 대림동 1126,서울 영등포구 시흥대로 595,126.903453,37.48608032,,https://img1.kakaocdn.net/relay/local/R680x420/?fname=http%3A%2F%2Ft1.daumcdn.net%2Flocal%2FkakaomapPhoto%2Freview%2F198b0cfb3237d169fffc8c3a79864ecbf4c27980%270Foriginal,5,5,1053815257
크린토피아 코인워시 GS신길주유소점,서울 영등포구 신길동 3632-2,서울 영등포구 신길로 74,126.9088543,37.49909876,02-833-5511,https://img1.kakaocdn.net/relay/local/R680x420/?fname=http%3A%2F%2Ft1.daumcdn.net%2Flocal%2FkakaomapPhoto%2Freview%2F198b0cfb3237d169fffc8c3a79864ecbf4c27980%271Foriginal,8,3,1064868546
화이트365 영등포구청역점,서울 영등포구 당산동1가 185-26,서울 영등포구 영등포로25길 18,126.8984376,37.52254881,,https://img1.kakaocdn.net/relay/local/R680x420/?fname=http%3A%2F%2Ft1.daumcdn.net%2Flocal%2FkakaomapPhoto%2Freview%2F198b0cfb3237d169fffc8c3a79864ecbf4c27980%272Foriginal,7,6,130529355
크린토피아 코인워시 당산삼성점,서울 영등포구 당산동 121-41,서울 영등포구 버드나루로22길 5,126.9076085,37.53085997,02-2068-2776,https://img1.kakaocdn.net/relay/local/R680x420/?fname=http%3A%2F%2Ft1.daumcdn.net%2Flocal%2FkakaomapPhoto%2Freview%2F198b0cfb3237d169fffc8c3a79864ecbf4c27980%273Foriginal,6,3,15848978
화이트365 선유도역점,서울 영등포구 양평동4가 123,서울 영등포구 양평로20길 3,126.8954414,37.53760552,,https://img1.kakaocdn.net/relay/local/R680x420/?fname=http%3A%2F%2Ft1.daumcdn.net%2Flocal%2FkakaomapPhoto%2Freview%2F198b0cfb3237d169fffc8c3a79864ecbf4c27980%274Foriginal,4,6,777596858
워시테리아 대림점,서울 영등포구 대림동 975-39,서울 영등포구 대림로8길 8,126.905234,37.49037417,,https://img1.kakaocdn.net/relay/local/R680x420/?fname=http%3A%2F%2Ft1.daumcdn.net%2Flocal%2FkakaomapPhoto%2Freview%2F198b0cfb3237d169fffc8c3a79864ecbf4c27980%275Foriginal,3,3,1230355911
더런드리 신길점,서울 영등포구 영등포동1가 31,서울 영등포구 경인로112길 13,126.9143976,37.51809608,010-5005-7345,https://img1.kakaocdn.net/relay/local/R680x420/?fname=http%3A%2F%2Ft1.daumcdn.net%2Flocal%2FkakaomapPhoto%2Freview%2F198b0cfb3237d169fffc8c3a79864ecbf4c27980%276Foriginal,6,5,149341955
크린토피아 코인워시 동작우체국점,서울 동작구 신대방동 364-75,서울 동작구 여의대방로22바길 2,126.9229884,37.49759153,02-6671-1140,https://img1.kakaocdn.net/relay/local/R680x420/?fname=http%3A%2F%2Ft1.daumcdn.net%2Flocal%2FkakaomapPhoto%2Freview%2F198b0cfb3237d169fffc8c3a79864ecbf4c27980%277Foriginal,6,6,21610964
크린토피아 코인워시 숭실대역점,서울 동작구 상도동 493-5,서울 동작구 상도로62길 13,126.9538083,37.49489647,02-816-1566,https://img1.kakaocdn.net/relay/local/R680x420/?fname=http%3A%2F%2Ft1.daumcdn.net%2Flocal%2FkakaomapPhoto%2Freview%2F198b0cfb3237d169fffc8c3a79864ecbf4c27980%278Foriginal,5,4,24266477
크린토피아 코인워시 사당두성점,서울 동작구 사당동 120-1,서울 동작구 동작대로29길 69,126.9781092,37.48845316,02-536-3350,https://img1.kakaocdn.net/relay/local/R680x420/?fname=http%3A%2F%2Ft1.daumcdn.net%2Flocal%2FkakaomapPhoto%2Freview%2F198b0cfb3237d169fffc8c3a79864ecbf4c27980%279Foriginal,5,3,413284248
크린토피아 코인워시365 상도스위트점,서울 동작구 상도동 351-5,서울 동작구 상도로15길 23,126.9333862,37.50193529,010-3306-4947,https://img1.kakaocdn.net/relay/local/R680x420/?fname=http%3A%2F%2Ft1.daumcdn.net%2Flocal%2FkakaomapPhoto%2Freview%2F198b0cfb3237d169fffc8c3a79864ecbf4c27980%280Foriginal,8,3,1508499758
크린토피아 코인워시 사당역점,서울 동작구 사당동 1037-11,서울 동작구 사당로26길 130-3,126.9780399,37.47795099,02-522-3545,https://img1.kakaocdn.net/relay/local/R680x420/?fname=http%3A%2F%2Ft1.daumcdn.net%2Flocal%2FkakaomapPhoto%2Freview%2F198b0cfb3237d169fffc8c3a79864ecbf4c27980%281Foriginal,6,6,16936882
화이트365 이수역점,서울 동작구 사당동 1015-21,서울 동작구 동작대로15길 65,126.9780477,37.48229385,,https://img1.kakaocdn.net/relay/local/R680x420/?fname=http%3A%2F%2Ft1.daumcdn.net%2Flocal%2FkakaomapPhoto%2Freview%2F198b0cfb3237d169fffc8c3a79864ecbf4c27980%282Foriginal,9,6,1602633395
워시엔조이 상도역점,서울 동작구 상도1동 434-2,서울 동작구 상도로41길 38,126.9512162,37.5023026,,https://img1.kakaocdn.net/relay/local/R680x420/?fname=http%3A%2F%2Ft1.daumcdn.net%2Flocal%2FkakaomapPhoto%2Freview%2F198b0cfb3237d169fffc8c3a79864ecbf4c27980%283Foriginal,9,6,275621484
워시엔조이 상도점,서울 동작구 상도동 289-23,서울 동작구 국사봉1길 137,126.9328827,37.49596854,,https://img1.kakaocdn.net/relay/local/R680x420/?fname=http%3A%2F%2Ft1.daumcdn.net%2Flocal%2FkakaomapPhoto%2Freview%2F198b0cfb3237d169fffc8c3a79864ecbf4c27980%284Foriginal,9,5,1746602283
크린토피아 코인워시 이수극동점,서울 동작구 사당동 105,서울 동작구 동작대로29길 119,126.97425,37.49195189,02-592-3346,https://img1.kakaocdn.net/relay/local/R680x420/?fname=http%3A%2F%2Ft1.daumcdn.net%2Flocal%2FkakaomapPhoto%2Freview%2F198b0cfb3237d169fffc8c3a79864ecbf4c27980%285Foriginal,7,4,17722592
더런드리 노량진점,서울 동작구 노량진동 323,서울 동작구 만양로8길 50,126.9465736,37.51032314,02-812-7338,https://img1.kakaocdn.net/relay/local/R680x420/?fname=http%3A%2F%2Ft1.daumcdn.net%2Flocal%2FkakaomapPhoto%2Freview%2F198b0cfb3237d169fffc8c3a79864ecbf4c27980%286Foriginal,3,6,18959674
화이트365 신대방삼거리역점,서울 동작구 상도동 299-58,서울 동작구 국사봉길 74,126.9306566,37.49658354,,https://img1.kakaocdn.net/relay/local/R680x420/?fname=http%3A%2F%2Ft1.daumcdn.net%2Flocal%2FkakaomapPhoto%2Freview%2F198b0cfb3237d169fffc8c3a79864ecbf4c27980%287Foriginal,8,4,438868701
크린업24 대방점,서울 동작구 대방동 387-1,서울 동작구 대방동15가길 23,126.9234932,37.5039061,,https://img1.kakaocdn.net/relay/local/R680x420/?fname=http%3A%2F%2Ft1.daumcdn.net%2Flocal%2FkakaomapPhoto%2Freview%2F198b0cfb3237d169fffc8c3a79864ecbf4c27980%288Foriginal,10,6,894369114
크린업24 성대시장점,서울 동작구 상도동 250-16,서울 동작구 성대로5길 2,126.9332415,37.499425,,https://img1.kakaocdn.net/relay/local/R680x420/?fname=http%3A%2F%2Ft1.daumcdn.net%2Flocal%2FkakaomapPhoto%2Freview%2F198b0cfb3237d169fffc8c3a79864ecbf4c27980%289Foriginal,9,4,27404020
크린업24 사당점,서울 동작구 사당동 269-15,서울 동작구 사당로16가길 49,126.9707524,37.48363658,,https://img1.kakaocdn.net/relay/local/R680x420/?fname=http%3A%2F%2Ft1.daumcdn.net%2Flocal%2FkakaomapPhoto%2Freview%2F198b0cfb3237d169fffc8c3a79864ecbf4c27980%290Foriginal,3,3,27245955
워시엔조이 신상도점,서울 동작구 상도동 210-203,서울 동작구 양녕로25길 9,126.9432665,37.49825173,,https://img1.kakaocdn.net/relay/local/R680x420/?fname=http%3A%2F%2Ft1.daumcdn.net%2Flocal%2FkakaomapPhoto%2Freview%2F198b0cfb3237d169fffc8c3a79864ecbf4c27980%291Foriginal,6,4,505288525
크린토피아 코인워시 신림문화의거리점,서울 관악구 신림동 1457-19,서울 관악구 신림동길 42,126.9241483,37.48685587,02-883-0458,https://img1.kakaocdn.net/relay/local/R680x420/?fname=http%3A%2F%2Ft1.daumcdn.net%2Flocal%2FkakaomapPhoto%2Freview%2F198b0cfb3237d169fffc8c3a79864ecbf4c27980%292Foriginal,7,4,1292604184
크린토피아 코인워시 관악대학동점,서울 관악구 신림동 1536-11,서울 관악구 신림로17길 42,126.9362394,37.46885364,02-877-2999,https://img1.kakaocdn.net/relay/local/R680x420/?fname=http%3A%2F%2Ft1.daumcdn.net%2Flocal%2FkakaomapPhoto%2Freview%2F198b0cfb3237d169fffc8c3a79864ecbf4c27980%293Foriginal,9,3,25116468
크린토피아 코인워시 신림성모성당점,서울 관악구 신림동 1418-20,서울 관악구 신림로68길 43,126.9316971,37.48651089,02-875-1616,https://img1.kakaocdn.net/relay/local/R680x420/?fname=http%3A%2F%2Ft1.daumcdn.net%2Flocal%2FkakaomapPhoto%2Freview%2F198b0cfb3237d169fffc8c3a79864ecbf4c27980%294Foriginal,8,6,18223238
워시엔조이 신대방역점,서울 관악구 신림동 511-30,서울 관악구 남부순환로151길 54,126.9154269,37.48411089,,https://img1.kakaocdn.net/relay/local/R680x420/?fname=http%3A%2F%2Ft1.daumcdn.net%2Flocal%2FkakaomapPhoto%2Freview%2F198b0cfb3237d169fffc8c3a79864ecbf4c27980%295Foriginal,6,5,26469055
화이트365 낙성대역점,서울 관악구 봉천동 1686-27,서울 관악구 남부순환로 1929-9,126.9638357,37.47767719,,https://img1.kakaocdn.net/relay/local/R680x420/?fname=http%3A%2F%2Ft1.daumcdn.net%2Flocal%2FkakaomapPhoto%2Freview%2F198b0cfb3237d169fffc8c3a79864ecbf4c27980%296Foriginal,7,5,1264254607
화이트365 신림점,서울 관악구 신림동 1432-50,서울 관악구 신림로67길 14,126.9285462,37.48613781,,https://img1.kakaocdn.net/relay/local/R680x420/?fname=http%3A%2F%2Ft1.daumcdn.net%2Flocal%2FkakaomapPhoto%2Freview%2F198b0cfb3237d169fffc8c3a79864ecbf4c27980%297Foriginal,7,4,1476376834
화이트365 신대방역점,서울 관악구 신림동 480-2,서울 관악구 조원로 143,126.9181873,37.48573014,,https://img1.kakaocdn.net/relay/local/R680x420/?fname=http%3A%2F%2Ft1.daumcdn.net%2Flocal%2FkakaomapPhoto%2Freview%2F198b0cfb3237d169fffc8c3a79864ecbf4c27980%298Foriginal,3,4,1572970963
워시엔조이 신림역점,서울 관악구 신림동 1433-170,서울 관악구 관천로10길 4,126.9256925,37.48491428,,https://img1.kakaocdn.net/relay/local/R680x420/?fname=http%3A%2F%2Ft1.daumcdn.net%2Flocal%2FkakaomapPhoto%2Freview%2F198b0cfb3237d169fffc8c3a79864ecbf4c27980%299Foriginal,4,6,27563100
화이트365 관악신원점,서울 관악구 신림동 1606-4,서울 관악구 신원로3가길 6,126.927627,37.48139074,,https://img1.kakaocdn.net/relay/local/R680x420/?fname=http%3A%2F%2Ft1.daumcdn.net%2Flocal%2FkakaomapPhoto%2Freview%2F198b0cfb3237d169fffc8c3a79864ecbf4c27980%300Foriginal,8,5,956718437
크린토피아 코인워시 관악드림타운점,서울 관악구 봉천동 480-3,서울 관악구 은천로25길 69,126.9484297,37.4889503,02-874-8882,https://img1.kakaocdn.net/relay/local/R680x420/?fname=http%3A%2F%2Ft1.daumcdn.net%2Flocal%2FkakaomapPhoto%2Freview%2F198b0cfb3237d169fffc8c3a79864ecbf4c27980%301Foriginal,8,3,13077267
크린토피아 코인워시 봉천중앙시장점,서울 관악구 봉천동 32-2,서울 관악구 관악로 211,126.9541182,37.48371148,02-579-9111,https://img1.kakaocdn.net/relay/local/R680x420/?fname=http%3A%2F%2Ft1.daumcdn.net%2Flocal%2FkakaomapPhoto%2Freview%2F198b0cfb3237d169fffc8c3a79864ecbf4c27980%302Foriginal,8,6,1053531663
워시엔조이 신림점,서울 관악구 신림동 1554-19,서울 관악구 신림로23길 65,126.9345626,37.46803101,,https://img1.kakaocdn.net/relay/local/R680x420/?fname=http%3A%2F%2Ft1.daumcdn.net%2Flocal%2FkakaomapPhoto%2Freview%2F198b0cfb3237d169fffc8c3a79864ecbf4c27980%303Foriginal,9,6,1983676483
더런드리 봉천점,서울 관악구 봉천동 877-1,서울 관악구 관악로15길 39,126.950118,37.48031756,,https://img1.kakaocdn.net/relay/local/R680x420/?fname=http%3A%2F%2Ft1.daumcdn.net%2Flocal%2FkakaomapPhoto%2Freview%2F198b0cfb3237d169fffc8c3a79864ecbf4c27980%304Foriginal,6,6,1700150538
화이트365 봉천점,서울 관악구 봉천동 896-28,서울 관악구 남부순환로214길 40,126.9473053,37.47996314,010-5190-3650,https://img1.kakaocdn.net/relay/local/R680x420/?fname=http%3A%2F%2Ft1.daumcdn.net%2Flocal%2FkakaomapPhoto%2Freview%2F198b0cfb3237d169fffc8c3a79864ecbf4c27980%305Foriginal,4,4,790037010
워시엔조이 관악청룡점,서울 관악구 봉천동 895-15,서울 관악구 청룡3길 1,126.9462826,37.48086369,,https://img1.kakaocdn.net/relay/local/R680x420/?fname=http%3A%2F%2Ft1.daumcdn.net%2Flocal%2FkakaomapPhoto%2Freview%2F198b0cfb3237d169fffc8c3a79864ecbf4c27980%306Foriginal,6,4,953042479
크린토피아 코인워시 서초서울고점,서울 서초구 서초동 1510-15,서울 서초구 반포대로21길 27,127.0084577,37.48735556,02-2055-1718,https://img1.kakaocdn.net/relay/local/R680x420/?fname=http%3A%2F%2Ft1.daumcdn.net%2Flocal%2FkakaomapPhoto%2Freview%2F198b0cfb3237d169fffc8c3a79864ecbf4c27980%307Foriginal,5,4,1000167578
크린토피아 코인워시 서울교대점,서울 서초구 서초동 1668-11,서울 서초구 서초대로60길 34,127.0187351,37.49348853,02-577-7871,https://img1.kakaocdn.net/relay/local/R680x420/?fname=http%3A%2F%2Ft1.daumcdn.net%2Flocal%2FkakaomapPhoto%2Freview%2F198b0cfb3237d169fffc8c3a79864ecbf4c27980%308Foriginal,5,5,22167454
크린토피아 코인워시 반포언구비점,서울 서초구 반포동 732-29,서울 서초구 강남대로83길 64-2,127.0206967,37.50484088,02-549-8259,https://img1.kakaocdn.net/relay/local/R680x420/?fname=http%3A%2F%2Ft1.daumcdn.net%2Flocal%2FkakaomapPhoto%2Freview%2F198b0cfb3237d169fffc8c3a79864ecbf4c27980%309Foriginal,3,4,14586516
크린토피아 코인워시 서초푸르지오써밋점,서울 서초구 서초동 1311-7,서울 서초구 서운로 207,127.0217544,37.50151778,02-533-3346,https://img1.kakaocdn.net/relay/local/R680x420/?fname=http%3A%2F%2Ft1.daumcdn.net%2Flocal%2FkakaomapPhoto%2Freview%2F198b0cfb3237d169fffc8c3a79864ecbf4c27980%310Foriginal,9,6,296901970
크린토피아 코인워시 잠원본점,서울 서초구 잠원동 35-33,서울 서초구 신반포로45길 32,127.0185451,37.5118943,02-547-8253,https://img1.kakaocdn.net/relay/local/R680x420/?fname=http%3A%2F%2Ft1.daumcdn.net%2Flocal%2FkakaomapPhoto%2Freview%2F198b0cfb3237d169fffc8c3a79864ecbf4c27980%311Foriginal,8,3,23752593
워시엔조이 서초효성점,서울 서초구 서초동 1337-6,서울 서초구 강남대로51길 10,127.0292958,37.49125549,,https://img1.kakaocdn.net/relay/local/R680x420/?fname=http%3A%2F%2Ft1.daumcdn.net%2Flocal%2FkakaomapPhoto%2Freview%2F198b0cfb3237d169fffc8c3a79864ecbf4c27980%312Foriginal,6,4,1891156009
크린토피아 코인워시 양재점,서울 서초구 양재동 17-21,서울 서초구 강남대로30길 28,127.0388539,37.48200118,02-577-0406,https://img1.kakaocdn.net/relay/local/R680x420/?fname=http%3A%2F%2Ft1.daumcdn.net%2Flocal%2FkakaomapPhoto%2Freview%2F198b0cfb3237d169fffc8c3a79864ecbf4c27980%313Foriginal,6,6,14808643
크린토피아 코인워시 양재2동점,서울 서초구 양재동 341,서울 서초구 강남대로8길 70,127.0442589,37.46966626,02-576-0907,https://img1.kakaocdn.net/relay/local/R680x420/?fname=http%3A%2F%2Ft1.daumcdn.net%2Flocal%2FkakaomapPhoto%2Freview%2F198b0cfb3237d169fffc8c3a79864ecbf4c27980%314Foriginal,3,6,13077507
크린토피아 코인워시 반포미도점,서울 서초구 반포동 49-11,서울 서초구 서초중앙로31길 14-13,127.010445,37.50065436,02-594-8285,https://img1.kakaocdn.net/relay/local/R680x420/?fname=http%3A%2F%2Ft1.daumcdn.net%2Flocal%2FkakaomapPhoto%2Freview%2F198b0cfb3237d169fffc8c3a79864ecbf4c27980%315Foriginal,5,4,225163507
크린토피아 코인워시 방배롯데캐슬점,서울 서초구 방배동 457-33,서울 서초구 청두곶9길 22,126.9841262,37.48113433,02-582-5977,https://img1.kakaocdn.net/relay/local/R680x420/?fname=http%3A%2F%2Ft1.daumcdn.net%2Flocal%2FkakaomapPhoto%2Freview%2F198b0cfb3237d169fffc8c3a79864ecbf4c27980%316Foriginal,5,5,21743663
화이트365 양재점,서울 서초구 양재동 361,서울 서초구 강남대로6길 88,127.0452308,37.46907843,,https://img1.kakaocdn.net/relay/local/R680x420/?fname=http%3A%2F%2Ft1.daumcdn.net%2Flocal%2FkakaomapPhoto%2Freview%2F198b0cfb3237d169fffc8c3a79864ecbf4c27980%317Foriginal,7,3,1298817578
워시엔조이 양재역점,서울 서초구 양재동 17-42,서울 서초구 강남대로30길 40,127.0394092,37.48221003,,https://img1.kakaocdn.net/relay/local/R680x420/?fname=http%3A%2F%2Ft1.daumcdn.net%2Flocal%2FkakaomapPhoto%2Freview%2F198b0cfb3237d169fffc8c3a79864ecbf4c27980%318Foriginal,9,4,419698988
크린토피아 코인워시 방배1동점,서울 서초구 방배동 937-8,서울 서초구 서초대로22길 17,126.9928585,37.48652321,02-582-2879,https://img1.kakaocdn.net/relay/local/R680x420/?fname=http%3A%2F%2Ft1.daumcdn.net%2Flocal%2FkakaomapPhoto%2Freview%2F198b0cfb3237d169fffc8c3a79864ecbf4c27980%319Foriginal,7,5,2077033142
크린토피아 코인워시 서초상문고점,서울 서초구 서초동 1487-132,서울 서초구 명달로 32,127.0057254,37.48048292,02-525-0433,https://img1.kakaocdn.net/relay/local/R680x420/?fname=http%3A%2F%2Ft1.daumcdn.net%2Flocal%2FkakaomapPhoto%2Freview%2F198b0cfb3237d169fffc8c3a79864ecbf4c27980%320Foriginal,10,4,19706636
크린토피아 코인워시 서초GS자이점,서울 서초구 서초동 1442-1,서울 서초구 서초중앙로2길 84,127.0211572,37.48539707,02-523-3636,https://img1.kakaocdn.net/relay/local/R680x420/?fname=http%3A%2F%2Ft1.daumcdn.net%2Flocal%2FkakaomapPhoto%2Freview%2F198b0cfb3237d169fffc8c3a79864ecbf4c27980%321Foriginal,9,6,13077513
크린토피아 코인워시 강남언주역점,서울 강남구 논현동 193-41,서울 강남구 봉은사로25길 13,127.0322837,37.50791251,02-512-4561,https://img1.kakaocdn.net/relay/local/R680x420/?fname=http%3A%2F%2Ft1.daumcdn.net%2Flocal%2FkakaomapPhoto%2Freview%2F198b0cfb3237d169fffc8c3a79864ecbf4c27980%322Foriginal,3,6,1366285398
크린토피아 코인워시 역삼역점,서울 강남구 역삼동 747,서울 강남구 역삼로19길 14,127.0374489,37.49619431,02-566-8285,https://img1.kakaocdn.net/relay/local/R680x420/?fname=http%3A%2F%2Ft1.daumcdn.net%2Flocal%2FkakaomapPhoto%2Freview%2F198b0cfb3237d169fffc8c3a79864ecbf4c27980%323Foriginal,10,3,19099441
화이트365 강남점,서울 강남구 논현동 107-43,서울 강남구 학동로43길 33,127.0376929,37.5183121,,https://img1.kakaocdn.net/relay/local/R680x420/?fname=http%3A%2F%2Ft1.daumcdn.net%2Flocal%2FkakaomapPhoto%2Freview%2F198b0cfb3237d169fffc8c3a79864ecbf4c27980%324Foriginal,6,4,1599906123
크린토피아 코인워시 역삼언주로점,서울 강남구 역삼동 774-35,서울 강남구 언주로71길 17,127.0436735,37.49710039,02-555-0640,https://img1.kakaocdn.net/relay/local/R680x420/?fname=http%3A%2F%2Ft1.daumcdn.net%2Flocal%2FkakaomapPhoto%2Freview%2F198b0cfb3237d169fffc8c3a79864ecbf4c27980%325Foriginal,10,6,17721451
크린토피아 코인워시 선릉역점,서울 강남구 역삼동 697-8,서울 강남구 테헤란로53길 23,127.0463024,37.50568056,02-567-1990,https://img1.kakaocdn.net/relay/local/R680x420/?fname=http%3A%2F%2Ft1.daumcdn.net%2Flocal%2FkakaomapPhoto%2Freview%2F198b0cfb3237d169fffc8c3a79864ecbf4c27980%326Foriginal,5,3,17722176
워시엔조이 청담점,서울 강남구 청담동 13-40,서울 강남구 도산대로72길 33,127.0457243,37.52214574,,https://img1.kakaocdn.net/relay/local/R680x420/?fname=http%3A%2F%2Ft1.daumcdn.net%2Flocal%2FkakaomapPhoto%2Freview%2F198b0cfb3237d169fffc8c3a79864ecbf4c27980%327Foriginal,10,5,1713367241
워시엔조이 역삼2호점,서울 강남구 역삼동 750-26,서울 강남구 역삼로11길 13-4,127.0348746,37.4952112,,https://img1.kakaocdn.net/relay/local/R680x420/?fname=http%3A%2F%2Ft1.daumcdn.net%2Flocal%2FkakaomapPhoto%2Freview%2F198b0cfb3237d169fffc8c3a79864ecbf4c27980%328Foriginal,10,3,27281224
워시엔조이 선릉역점,서울 강남구 역삼동 704-3,서울 강남구 테헤란로43길 30,127.0442618,37.50515876,,https://img1.kakaocdn.net/relay/local/R680x420/?fname=http%3A%2F%2Ft1.daumcdn.net%2Flocal%2FkakaomapPhoto%2Freview%2F198b0cfb3237d169fffc8c3a79864ecbf4c27980%329Foriginal,6,4,836518526
화이트365 대치점,서울 강남구 대치동 906-12,서울 강남구 선릉로76길 34,127.0533888,37.50206995,,https://img1.kakaocdn.net/relay/local/R680x420/?fname=http%3A%2F%2Ft1.daumcdn.net%2Flocal%2FkakaomapPhoto%2Freview%2F198b0cfb3237d169fffc8c3a79864ecbf4c27980%330Foriginal,6,4,361794277
크린업24 강남역삼점,서울 강남구 역삼동 825-24,서울 강남구 강남대로84길 15,127.0298138,37.49699027,02-596-8826,https://img1.kakaocdn.net/relay/local/R680x420/?fname=http%3A%2F%2Ft1.daumcdn.net%2Flocal%2FkakaomapPhoto%2Freview%2F198b0cfb3237d169fffc8c3a79864ecbf4c27980%331Foriginal,7,5,781754195
워시엔조이 강남논현점,서울 강남구 논현동 122-24,서울 강남구 강남대로128길 21,127.023933,37.51029495,02-3443-8280,https://img1.kakaocdn.net/relay/local/R680x420/?fname=http%3A%2F%2Ft1.daumcdn.net%2Flocal%2FkakaomapPhoto%2Freview%2F198b0cfb3237d169fffc8c3a79864ecbf4c27980%332Foriginal,3,6,21914011
크린토피아 코인워시365 역삼1동점,서울 강남구 역삼동 690-3,서울 강남구 봉은사로44길 43,127.0415573,37.50665181,02-6959-5671,https://img1.kakaocdn.net/relay/local/R680x420/?fname=http%3A%2F%2Ft1.daumcdn.net%2Flocal%2FkakaomapPhoto%2Freview%2F198b0cfb3237d169fffc8c3a79864ecbf4c27980%333Foriginal,3,4,27234096
크린토피아 코인워시365 청담경원점,서울 강남구 청담동 5,서울 강남구 도산대로 446,127.0450646,37.523593,,https://img1.kakaocdn.net/relay/local/R680x420/?fname=http%3A%2F%2Ft1.daumcdn.net%2Flocal%2FkakaomapPhoto%2Freview%2F198b0cfb3237d169fffc8c3a79864ecbf4c27980%334Foriginal,10,3,1413718796
워시엔조이 강남일원점,서울 강남구 일원동 627-10,서울 강남구 일원로3길 65,127.0849404,37.49296212,,https://img1.kakaocdn.net/relay/local/R680x420/?fname=http%3A%2F%2Ft1.daumcdn.net%2Flocal%2FkakaomapPhoto%2Freview%2F198b0cfb3237d169fffc8c3a79864ecbf4c27980%335Foriginal,6,3,555573818
워시테리아 역삼점,서울 강남구 역삼동 789-6,서울 강남구 역삼로 152,127.0359464,37.49467388,1577-8394,https://img1.kakaocdn.net/relay/local/R680x420/?fname=http%3A%2F%2Ft1.daumcdn.net%2Flocal%2FkakaomapPhoto%2Freview%2F198b0cfb3237d169fffc8c3a79864ecbf4c27980%336Foriginal,5,4,1628725024
크린토피아 코인워시 송파방이2동점,서울 송파구 방이동 106-2,서울 송파구 오금로17길 20,127.1122848,37.51237579,02-425-6114,https://img1.kakaocdn.net/relay/local/R680x420/?fname=http%3A%2F%2Ft1.daumcdn.net%2Flocal%2FkakaomapPhoto%2Freview%2F198b0cfb3237d169fffc8c3a79864ecbf4c27980%337Foriginal,10,3,21089710
크린토피아 코인워시 송파방이시장점,서울 송파구 방이동 111-10,서울 송파구 오금로19길 17,127.1139662,37.51123891,02-417-0250,https://img1.kakaocdn.net/relay/local/R680x420/?fname=http%3A%2F%2Ft1.daumcdn.net%2Flocal%2FkakaomapPhoto%2Freview%2F198b0cfb3237d169fffc8c3a79864ecbf4c27980%338Foriginal,10,5,17722224
크린토피아 코인워시 잠실잠전초교점,서울 송파구 잠실동 238-18,서울 송파구 삼전로9길 21,127.0871319,37.50660897,02-420-8353,https://img1.kakaocdn.net/relay/local/R680x420/?fname=http%3A%2F%2Ft1.daumcdn.net%2Flocal%2FkakaomapPhoto%2Freview%2F198b0cfb3237d169fffc8c3a79864ecbf4c27980%339Foriginal,6,5,19209080
화이트365 방이점,서울 송파구 방이동 49-4,서울 송파구 오금로11길 55-8,127.113683,37.51545948,,https://img1.kakaocdn.net/relay/local/R680x420/?fname=http%3A%2F%2Ft1.daumcdn.net%2Flocal%2FkakaomapPhoto%2Freview%2F198b0cfb3237d169fffc8c3a79864ecbf4c27980%340Foriginal,3,6,1810674886
워시엔조이 송파방이점,서울 송파구 방이동 164-8,서울 송파구 위례성대로12길 14,127.1221029,37.51251381,,https://img1.kakaocdn.net/relay/local/R680x420/?fname=http%3A%2F%2Ft1.daumcdn.net%2Flocal%2FkakaomapPhoto%2Freview%2F198b0cfb3237d169fffc8c3a79864ecbf4c27980%341Foriginal,8,3,243324203
크린토피아 코인워시 송파가락동점,서울 송파구 가락동 19-9,서울 송파구 오금로36길 28-1,127.1239133,37.50132325,02-3012-7001,https://img1.kakaocdn.net/relay/local/R680x420/?fname=http%3A%2F%2Ft1.daumcdn.net%2Flocal%2FkakaomapPhoto%2Freview%2F198b0cfb3237d169fffc8c3a79864ecbf4c27980%342Foriginal,7,5,1680211582
크린토피아 코인워시 문정엠스테이트점,서울 송파구 문정동 337-1,서울 송파구 법원로 114,127.1210368,37.48553519,02-2283-1238,https://img1.kakaocdn.net/relay/local/R680x420/?fname=http%3A%2F%2Ft1.daumcdn.net%2Flocal%2FkakaomapPhoto%2Freview%2F198b0cfb3237d169fffc8c3a79864ecbf4c27980%343Foriginal,7,4,87047163
크린토피아 코인워시 송파1동점,서울 송파구 송파동 112-14,서울 송파구 백제고분로42길 15,127.1102611,37.50526697,02-415-9042,https://img1.kakaocdn.net/relay/local/R680x420/?fname=http%3A%2F%2Ft1.daumcdn.net%2Flocal%2FkakaomapPhoto%2Freview%2F198b0cfb3237d169fffc8c3a79864ecbf4c27980%344Foriginal,7,4,25985299
화이트365 잠실점,서울 송파구 잠실동 218,서울 송파구 석촌호수로12길 43,127.0817956,37.50840398,,https://img1.kakaocdn.net/relay/local/R680x420/?fname=http%3A%2F%2Ft1.daumcdn.net%2Flocal%2FkakaomapPhoto%2Freview%2F198b0cfb3237d169fffc8c3a79864ecbf4c27980%345Foriginal,9,3,1168946692
크린토피아 코인워시 문정로데오점,서울 송파구 문정동 28-17,서울 송파구 송이로28길 20,127.125476,37.4896824,02-409-0832,https://img1.kakaocdn.net/relay/local/R680x420/?fname=http%3A%2F%2Ft1.daumcdn.net%2Flocal%2FkakaomapPhoto%2Freview%2F198b0cfb3237d169fffc8c3a79864ecbf4c27980%346Foriginal,9,5,16059481
크린토피아 코인워시 잠실본동점,서울 송파구 잠실동 312-18,서울 송파구 백제고분로12길 7,127.0810776,37.50545639,02-420-7028,https://img1.kakaocdn.net/relay/local/R680x420/?fname=http%3A%2F%2Ft1.daumcdn.net%2Flocal%2FkakaomapPhoto%2Freview%2F198b0cfb3237d169fffc8c3a79864ecbf4c27980%347Foriginal,8,4,26633919
화이트365 석촌점,서울 송파구 석촌동 163-13,서울 송파구 백제고분로39길 29-5,127.1033878,37.50666884,,https://img1.kakaocdn.net/relay/local/R680x420/?fname=http%3A%2F%2Ft1.daumcdn.net%2Flocal%2FkakaomapPhoto%2Freview%2F198b0cfb3237d169fffc8c3a79864ecbf4c27980%348Foriginal,8,4,1536123162
크린토피아 코인워시 송파삼전호수점,서울 송파구 삼전동 113-8,서울 송파구 백제고분로31길 31,127.0955134,37.50550326,02-421-8842,https://img1.kakaocdn.net/relay/local/R680x420/?fname=http%3A%2F%2Ft1.daumcdn.net%2Flocal%2FkakaomapPhoto%2Freview%2F198b0cfb3237d169fffc8c3a79864ecbf4c27980%349Foriginal,5,3,20458488
더런드리 송파잠실점,서울 송파구 잠실동 339-2,서울 송파구 백제고분로20길 13-8,127.086228,37.50340565,010-8236-8599,https://img1.kakaocdn.net/relay/local/R680x420/?fname=http%3A%2F%2Ft1.daumcdn.net%2Flocal%2FkakaomapPhoto%2Freview%2F198b0cfb3237d169fffc8c3a79864ecbf4c27980%350Foriginal,3,5,1337544148
크린토피아 코인워시 송파마천공원점,서울 송파구 마천동 19-14,서울 송파구 마천로33길 11-14,127.1446483,37.50111768,02-430-1430,https://img1.kakaocdn.net/relay/local/R680x420/?fname=http%3A%2F%2Ft1.daumcdn.net%2Flocal%2FkakaomapPhoto%2Freview%2F198b0cfb3237d169fffc8c3a79864ecbf4c27980%351Foriginal,4,3,20950762
크린토피아 코인워시 강동고덕그라시움점,서울 강동구 고덕동 187-3,서울 강동구 고덕로83길 52,127.1687457,37.5593444,02-3013-5353,https://img1.kakaocdn.net/relay/local/R680x420/?fname=http%3A%2F%2Ft1.daumcdn.net%2Flocal%2FkakaomapPhoto%2Freview%2F198b0cfb3237d169fffc8c3a79864ecbf4c27980%352Foriginal,10,3,1469918255
크린토피아 코인워시 강동둔촌역점,서울 강동구 성내동 427-51,서울 강동구 풍성로54길 41,127.1333684,37.52772496,02-488-8285,https://img1.kakaocdn.net/relay/local/R680x420/?fname=http%3A%2F%2Ft1.daumcdn.net%2Flocal%2FkakaomapPhoto%2Freview%2F198b0cfb3237d169fffc8c3a79864ecbf4c27980%353Foriginal,9,3,27304916
화이트365 강동역점,서울 강동구 천호동 165-6,서울 강동구 진황도로 45-1,127.1321787,37.53821755,,https://img1.kakaocdn.net/relay/local/R680x420/?fname=http%3A%2F%2Ft1.daumcdn.net%2Flocal%2FkakaomapPhoto%2Freview%2F198b0cfb3237d169fffc8c3a79864ecbf4c27980%354Foriginal,4,3,2094419662
화이트365 길동점,서울 강동구 길동 390-26,서울 강동구 진황도로47길 51,127.1403501,37.53696114,,https://img1.kakaocdn.net/relay/local/R680x420/?fname=http%3A%2F%2Ft1.daumcdn.net%2Flocal%2FkakaomapPhoto%2Freview%2F198b0cfb3237d169fffc8c3a79864ecbf4c27980%355Foriginal,9,5,2028757322
워시테리아 천호점,서울 강동구 천호동 427-4,서울 강동구 구천면로24길 20-31,127.1250104,37.54002645,,https://img1.kakaocdn.net/relay/local/R680x420/?fname=http%3A%2F%2Ft1.daumcdn.net%2Flocal%2FkakaomapPhoto%2Freview%2F198b0cfb3237d169fffc8c3a79864ecbf4c27980%356Foriginal,7,3,770686710
크린토피아 코인워시 강동구청점,서울 강동구 성내동 542-5,서울 강동구 성내로 73,127.1281145,37.5276623,02-482-6176,https://img1.kakaocdn.net/relay/local/R680x420/?fname=http%3A%2F%2Ft1.daumcdn.net%2Flocal%2FkakaomapPhoto%2Freview%2F198b0cfb3237d169fffc8c3a79864ecbf4c27980%357Foriginal,8,5,13077252
워시엔조이 천호점,서울 강동구 천호동 311-23,서울 강동구 천중로15길 48,127.1283561,37.54719211,,https://img1.kakaocdn.net/relay/local/R680x420/?fname=http%3A%2F%2Ft1.daumcdn.net%2Flocal%2FkakaomapPhoto%2Freview%2F198b0cfb3237d169fffc8c3a79864ecbf4c27980%358Foriginal,8,6,468232630
화이트365 성내점,서울 강동구 성내동 430-18,서울 강동구 양재대로89길 23,127.1341356,37.52658883,,https://img1.kakaocdn.net/relay/local/R680x420/?fname=http%3A%2F%2Ft1.daumcdn.net%2Flocal%2FkakaomapPhoto%2Freview%2F198b0cfb3237d169fffc8c3a79864ecbf4c27980%359Foriginal,6,5,2028727281
워시엔조이 강동점,서울 강동구 성내동 595,서울 강동구 올림픽로 572,127.1218187,37.53255239,010-4826-8424,https://img1.kakaocdn.net/relay/local/R680x420/?fname=http%3A%2F%2Ft1.daumcdn.net%2Flocal%2FkakaomapPhoto%2Freview%2F198b0cfb3237d169fffc8c3a79864ecbf4c27980%360Foriginal,6,6,620192562
워시테리아 길동점,서울 강동구 길동 123-2,서울 강동구 천호대로199길 25,127.1478735,37.53775204,,https://img1.kakaocdn.net/relay/local/R680x420/?fname=http%3A%2F%2Ft1.daumcdn.net%2Flocal%2FkakaomapPhoto%2Freview%2F198b0cfb3237d169fffc8c3a79864ecbf4c27980%361Foriginal,10,4,910896000
워시테리아 상일점,서울 강동구 상일동 292-5,서울 강동구 천호대로219길 36,127.1704434,37.54743799,,https://img1.kakaocdn.net/relay/local/R680x420/?fname=http%3A%2F%2Ft1.daumcdn.net%2Flocal%2FkakaomapPhoto%2Freview%2F198b0cfb3237d169fffc8c3a79864ecbf4c27980%362Foriginal,10,6,2056031861
화이트365 암사동점,서울 강동구 암사동 475-1,서울 강동구 암사길 60-1,127.136227,37.55185046,,https://img1.kakaocdn.net/relay/local/R680x420/?fname=http%3A%2F%2Ft1.daumcdn.net%2Flocal%2FkakaomapPhoto%2Freview%2F198b0cfb3237d169fffc8c3a79864ecbf4c27980%363Foriginal,6,4,1955145580
화이트365 천호점,서울 강동구 천호동 321-74,서울 강동구 올림픽로89길 27-30,127.1238607,37.54681489,,https://img1.kakaocdn.net/relay/local/R680x420/?fname=http%3A%2F%2Ft1.daumcdn.net%2Flocal%2FkakaomapPhoto%2Freview%2F198b0cfb3237d169fffc8c3a79864ecbf4c27980%364Foriginal,4,6,1615360435
워시엔조이 굽은다리역점,서울 강동구 길동 339-4,서울 강동구 천중로49길 32-17,127.1443782,37.54230732,010-2000-8978,https://img1.kakaocdn.net/relay/local/R680x420/?fname=http%3A%2F%2Ft1.daumcdn.net%2Flocal%2FkakaomapPhoto%2Freview%2F198b0cfb3237d169fffc8c3a79864ecbf4c27980%365Foriginal,8,6,1639779013
워시엔조이 암사점,서울 강동구 암사동 451-16,서울 강동구 고덕로27길 7,127.1375235,37.55533402,,https://img1.kakaocdn.net/relay/local/R680x420/?fname=http%3A%2F%2Ft1.daumcdn.net%2Flocal%2FkakaomapPhoto%2Freview%2F198b0cfb3237d169fffc8c3a79864ecbf4c27980%366Foriginal,9,5,91292731
